X,Y,OBJECTID,NAME,WEB_URL,RELIGION,ADDRESS,XCOORD,YCOORD,PLACE_OF_WORSHIP,Is_Place_Of_Worship,GIS_ID,ADDRID
-77.022683702742512,38.899403363220017,1,CALVARY BAPTIST CHURCH,CALVARYDC.ORG,CHRISTIAN,755 8TH ST NW,398032.51,136838.45,CHURCHES,1,,
-77.026793394321771,38.91792266248784,2,CHRISTIAN TABERNACLE CHURCH OF GOD,CTCOGINC.ORG,CHRISTIAN,2033 11TH ST NW,397676.62,138894.34,CHURCHES,1,,
-77.016387869838894,38.905960067137599,3,CHURCH-THE LIVING GOD PILLAR,,CHRISTIAN,1206 4TH ST NW,398578.77,137566.18,CHURCHES,1,,
-77.02259746551303,38.907750431382844,4,IMMACULATE CONCEPTION PARISH,IMMACULATECONCEPTIONCHURCHDC.ORG,CHRISTIAN,1315 8TH ST NW,398040.22,137765.04,CHURCHES,1,,
-77.022203819072018,38.9117242678835,5,DISTRICT CHURCH,DISTRICTCHURCH.ORG,CHRISTIAN,1616 7TH ST NW,398074.47,138206.16,CHURCHES,1,,
-77.013856686016879,38.913895124574289,6,MEDHANE ALEM ERITREAN ORTHODOX,MEDHANEALEMORTHODOX.ORG,CHRISTIAN,150 S ST NW,398798.45,138447,CHURCHES,1,,
-77.018694290135315,38.906885959370989,7,KINGDOM HALL-JEHOVAH'S WITNESS,JW.ORG/EN,CHRISTIAN,1237 5TH ST NW,398378.74,137669,CHURCHES,1,,
-77.023291995019662,38.900323087234376,8,GREATER NEW HOPE BAPTIST CHR,GNHBC.ORG,CHRISTIAN,816 8TH ST NW,397979.77,136940.56,CHURCHES,1,,
-77.011974750095689,38.909462147688757,9,FAITH & HOPE FULL GOSPEL CHR,,CHRISTIAN,90 P ST NW,398961.6,137954.88,CHURCHES,1,,
-77.020443554751765,38.907018359337307,10,FIRST RISING MT ZION BAPTIST,FIRSTRISING.ORG,CHRISTIAN,602 N ST NW,398227.02,137683.73,CHURCHES,1,,
-77.016386623911245,38.905053466816263,11,FIRST TABERNACLE BETH EL,,CHRISTIAN,401 NEW YORK AVE NW,398578.86,137465.54,CHURCHES,1,,
-77.015782757964118,38.896303910720036,12,FIRST TRINITY LUTHERAN CHURCH,FIRSTTRINITYDC.ORG,CHRISTIAN,501 4TH ST NW,398631.07,136494.26,CHURCHES,1,,
-77.020837418278234,38.916168512758254,13,FLORIDA AVENUE BAPTIST CHURCH,FLORIDAAVENUE.ORG,CHRISTIAN,623 FLORIDA AVE NW,398193.09,138699.48,CHURCHES,1,,
-77.022597302963732,38.899595798564981,14,GRACE PRESBYTERIAN CHR-WA DC,<Null>,CHRISTIAN,777 8TH ST NW,398040.01,136859.81,CHURCHES,1,,
-77.013874984087337,38.905417098972741,15,HOLY REDEEMER CHURCH,HOLYREDEEMERCHURCHDC.ORG,CHRISTIAN,206 NEW YORK AVE NW,398796.72,137505.87,CHURCHES,1,,
-77.01485170528241,38.897562051037553,16,HOLY ROSARY CHURCH,HOLYROSARYCHURCHDC.ORG,CHRISTIAN,595 3RD ST NW,398711.86,136633.91,CHURCHES,1,,
-77.015889861368649,38.910329544662368,17,MASJID MUHAMMAD,MASJIDMUHAMMAD.COM,ISLAMIC,1519 4TH ST NW,398622.05,138051.22,MOSQUES,1,,
-77.019573838609375,38.909324645185336,18,SPRINGFIELD BAPTIST CHURCH,SPRINGFIELDDC.ORG,CHRISTIAN,508 P ST NW,398302.51,137939.73,CHURCHES,1,,
-77.024329466393354,38.909916590801039,19,SHILOH BAPTIST CHURCH,SHILOHBAPTIST.ORG,CHRISTIAN,1500 9TH ST NW,397890.06,138005.54,CHURCHES,1,,
-77.025568303935529,38.898550756541731,20,TABLE CHURCH-DOWNTOWN,THETABLECHURCHDC.ORG,CHRISTIAN,945 G ST NW,397782.26,136743.87,CHURCHES,1,,
-77.009662316050608,38.901564199672293,21,ST ALOYSIUS PARISH,STALSCHURCHDC.ORG,CHRISTIAN,19 EYE ST NW,399162.07,137078.12,CHURCHES,1,,
-77.014185870159267,38.916743160375482,22,ST GEORGE'S EPISCOPAL CHURCH,STGEORGESDC.ORG,CHRISTIAN,160 U ST NW,398769.95,138763.16,CHURCHES,1,,
-77.025568303935529,38.898550756541731,23,FIRST CONGREGATIONAL UCC,FIRSTUCCDC.ORG,CHRISTIAN,945 G ST NW,397782.26,136743.87,CHURCHES,1,,
-77.019146004196074,38.909876477207334,24,HEMMINGWAY TEMPLE AME CHURCH,HEMINGWAYTEMPLEAME.ORG,CHRISTIAN,501 P ST NW,398339.63,138000.98,CHURCHES,1,,
-77.020164592567681,38.904740015691665,25,GALBRAITH AME ZION CHURCH,GALBRAITHAMEZ.ORG,CHRISTIAN,1114 6TH ST NW,398251.16,137430.81,CHURCHES,1,,
-77.01596564913973,38.911522869478922,26,FOURTH STREET FRIENDSHIP SDA CHURCH,FSFSDA.ORG,CHRISTIAN,1611 4TH ST NW,398615.5,138183.69,CHURCHES,1,,
-77.018694934417155,38.919020192353088,27,HIGHWAY CHRISTIAN CHR-CHRIST,,CHRISTIAN,432 W ST NW,398378.96,139016,CHURCHES,1,,
-77.023670695417792,38.908305313236959,28,SCRIPTURE CATHEDRAL,SCRIPTURECATHEDRAL.COM,CHRISTIAN,810 O ST NW,397947.15,137826.66,CHURCHES,1,,
-77.02259746551303,38.907750431382844,29,ST LUKE'S AT IMMACULATE CNCPTN,STLUKESORDINARIATE.COM,CHRISTIAN,1317 8TH ST NW,398040.22,137765.04,CHURCHES,1,,
-77.018704465069916,38.899523699213816,30,ST MARYS MOTHER OF GOD,SAINTMARYMOTHEROFGOD.ORG,CHRISTIAN,727 5TH ST NW,398377.69,136851.73,CHURCHES,1,,
-77.025498116490311,38.897955679393498,31,ST PATRICKS CATHOLIC CHURCH,SAINTPATRICKDC.ORG,CHRISTIAN,619 10TH ST NW,397788.33,136677.81,CHURCHES,1,,
-77.015522293809553,38.906112606650659,32,THIRD STREET CHURCH OF GOD,THIRDSTREET.ORG,CHRISTIAN,1204 3RD ST NW,398653.85,137583.1,CHURCHES,1,,
-77.015782757964118,38.896303910720036,33,NEW HOPE BAPTIST UCC,NEWHOPEBUCC.COM,CHRISTIAN,309 E ST NW,398631.07,136494.26,CHURCHES,1,,
-77.019225134074588,38.907441958593061,34,MILES MEMORIAL CHRISTIAN,MMCMECHURCH.ORG,CHRISTIAN,501 N ST NW,398332.71,137730.73,CHURCHES,1,,
-77.017450569806286,38.917503381965254,35,SONS-DAUGHTERS IN CHRIST A M E,,CHRISTIAN,345 ELM ST NW,398486.84,138847.6,CHURCHES,1,,
-77.026679810694674,38.912368598965152,36,TENTH STREET BAPTIST CHURCH,10THSTREETBAPTISTCHURCH.INFO,CHRISTIAN,1000 R ST NW,397686.29,138277.79,CHURCHES,1,,
-77.020514391099852,38.905976711411796,37,UNITED HOUSE OF PRAYER FOR ALL PEOPLE,TUHOPFAP.ORG,CHRISTIAN,601 M ST NW,398220.85,137568.1,CHURCHES,1,,
-77.015261938404095,38.918919167337378,38,TRUE GRACE CHURCH OF JESUS,,CHRISTIAN,205 V ST NW,398676.67,139004.73,CHURCHES,1,,
-77.013341059009008,38.903494328186092,39,SOUTHERN BAPTIST CHURCH,SOUTHERNBAPTISTPWC.COM,CHRISTIAN,134 L ST NW,398843,137292.42,CHURCHES,1,,
-77.018657024912713,38.906347536264086,40,METROPOLITAN COMMUNITY CHURCH,MCCNH.ORG,CHRISTIAN,474 RIDGE ST NW,398381.96,137609.23,CHURCHES,1,,
-77.024986071192657,38.907563742385442,41,SALEM BAPTIST CHURCH,SALEMBAPTISTCHURCHDC.ORG,CHRISTIAN,917 N ST NW,397833.04,137744.37,CHURCHES,1,,
-77.019695573747583,38.900072776066047,42,TEMPLE OF CUN YUM,,CHRISTIAN,805 6TH ST NW,398291.73,136912.7,CHURCHES,1,,
-77.015540962483271,38.900782270525248,43,SECOND BAPTIST CHURCH,SECONDBAPTISTCHURCHDC.ORG,CHRISTIAN,816 3RD ST NW,398652.13,136991.39,CHURCHES,1,,
-77.017020069945033,38.91054414438085,44,SECOND CHURCH OF GOD,,CHRISTIAN,1530 NEW JERSEY AVE NW,398524.03,138075.06,CHURCHES,1,,
-77.026243550648914,38.907470860855639,45,NEW BETHANY BAPTIST CHURCH,NEWBETHANYBAPTISTDC.ORG,CHRISTIAN,1300 10TH ST NW,397723.97,137734.09,CHURCHES,1,,
-77.023563455303574,38.913842132500086,46,NEW BETHEL BAPTIST CHURCH,NBBC-DC.ORG,CHRISTIAN,1739 9TH ST NW,397956.61,138441.29,CHURCHES,1,,
-77.013887096967338,38.906046961442534,47,NEW BIRTH BAPTIST CHURCH WA,,CHRISTIAN,1200 KIRBY ST NW,398795.68,137575.79,CHURCHES,1,,
-76.993159980819541,38.891300176941201,48,CAPITOL HILL ADVENTIST CHURCH,CAPITOLHILLSDACHURCH.ORG,CHRISTIAN,912 MASSACHUSETTS AVE NE,400593.6,135938.71,CHURCHES,1,,
-77.011664090641901,38.916213659266937,49,MT BETHEL BAPTIST CHURCH,<Null>,CHRISTIAN,75 RHODE ISLAND AVE NW,398988.64,138704.35,CHURCHES,1,,
-77.014821097833064,38.901717431683075,50,MT CARMEL BAPTIST CHURCH,THEMCBC.ORG,CHRISTIAN,901 3RD ST NW,398714.59,137095.19,CHURCHES,1,,
-77.015649961421943,38.896310234444947,51,METRO WASH DC SYNOD,METRODCELCA.ORG,CHRISTIAN,305 E ST NW,398642.59,136494.96,CHURCHES,1,,
-77.016554410590274,38.909197463807928,52,NEW COVENANT EVANGELISTIC CTR,,CHRISTIAN,1418 NEW JERSEY AVE NW,398564.39,137925.56,CHURCHES,1,,
-76.981533435624399,38.904405186373737,53,COMMUNITY UNITED METHODIST CHURCH,SITES.GOOGLE.COM/SITE/COMMUNITYUMC2/,CHRISTIAN,1600 LEVIS ST NE,401601.96,137393.61,CHURCHES,1,,
-76.986144519257664,38.911028311062438,54,BETHESDA BAPTIST CHURCH,BETHESDAWEB.ORG,CHRISTIAN,1808 CAPITOL AVE NE,401201.89,138128.76,CHURCHES,1,,
-76.983003069985401,38.901314912765621,55,CHRISTIAN LOVE BAPTIST CHURCH,,CHRISTIAN,818 BLADENSBURG RD NE,401474.55,137050.54,CHURCHES,1,,
-76.994731481969865,38.901499890782453,56,CRUSADERS BAPTIST CHURCH,CRUSADERSBAPTISTCHURCH.ORG,CHRISTIAN,800 I ST NE,400457.2,137070.95,CHURCHES,1,,
-76.995930108129414,38.891137434847501,57,CHURCH OF GOD,WASHINGTONDCWMSCOG.COM,CHRISTIAN,700 A ST NE,400353.28,135920.63,CHURCHES,1,,
-76.98914354645359,38.893835008895003,58,CHURCH-THE LORD JESUS CHRIST,TCLJC.COM,CHRISTIAN,1230 C ST NE,400942.01,136220.13,CHURCHES,1,,
-77.00158184875923,38.914311129969732,59,FIRST JERICHO BAPTIST CHURCH,FIRSTJERICHOBAPTISTCHURCH.ORG,CHRISTIAN,304 S ST NE,399863.01,138493.09,CHURCHES,1,,
-76.995223400294975,38.892889536667418,60,CHURCH OF ST MONICA & ST JAMES,STMONICA-STJAMES.ORG,CHRISTIAN,222 8TH ST NE,400414.58,136115.13,CHURCHES,1,,
-76.994333920165019,38.902271618150934,61,CHURCH UNITED SPANISH,IPUHDC.ORG,CHRISTIAN,811 K ST NE,400491.68,137156.62,CHURCHES,1,,
-76.991790353078798,38.900444842366078,62,DOUGLAS MEMORIAL UNITED MTHDST,,CHRISTIAN,800 11TH ST NE,400712.33,136953.85,CHURCHES,1,,
-76.986358147449636,38.891851703966033,63,BROWN MEMORIAL AME CHURCH,BROWNMEMORIALAMEC.ORG,CHRISTIAN,130 14TH ST NE,401183.68,136000,CHURCHES,1,,
-77.014682092206755,38.906332519019337,64,MT LEBANON BAPTIST CHURCH,MTLEBANONBAPTISTCHURCH.COM,CHRISTIAN,1219 NEW JERSEY AVE NW,398726.73,137607.5,CHURCHES,1,,
-77.014769011852877,38.915188790116076,65,MT PLEASANT BAPTIST CHURCH,MPBCDC.COM,CHRISTIAN,215 RHODE ISLAND AVE NW,398719.35,138590.62,CHURCHES,1,,
-77.014827422541529,38.911622471575242,66,MT SINAI BAPTIST CHURCH,MSBCDC.ORG,CHRISTIAN,1615 3RD ST NW,398714.22,138194.73,CHURCHES,1,,
-77.024996305692113,38.902882099576644,67,MT VERNON PLACE UNITED MTHDST,MVPUMC.ORG,CHRISTIAN,900 MASSACHUSETTS AVE NW,397832.01,137224.67,CHURCHES,1,,
-77.008756957272965,38.917282661964684,68,ALL NATIONS BAPTIST CHURCH,ALLNATIONSBAPTISTCHURCH.COM,CHRISTIAN,2001 N CAPITOL ST NE,399240.77,138822.99,CHURCHES,1,,
-77.025736345062455,38.912827245028218,69,WAY BACK TO PENTECOST CHURCH,THEWAYBACKTOPENTECOST.ORG,CHRISTIAN,945 R ST NW,397768.13,138328.68,CHURCHES,1,,
-77.003205725230615,38.897143251627696,70,NATIONAL COMMUNITY CHURCH,NCCPRODUCTION.COM,CHRISTIAN,205 F ST NE,399722.11,136587.32,CHURCHES,1,,
-77.009575721104596,38.904018623432385,71,MT AIRY BAPTIST CHURCH,MOUNTAIRYBAPTIST.ORG,CHRISTIAN,1100 N CAPITOL ST NW,399169.61,137350.58,CHURCHES,1,,
-76.987278019507571,38.898164602076804,72,PURITY BAPTIST CHURCH,PURITYBAPTISTDC.ORG,CHRISTIAN,1325 MARYLAND AVE NE,401103.78,136700.77,CHURCHES,1,,
-76.989019053130079,38.90731492611355,73,NEW LIFE BAPTIST CHR ALEXANDER,,CHRISTIAN,1501 W VIRGINIA AVE NE,400952.63,137716.51,CHURCHES,1,,
-76.991519976077967,38.903684138149153,74,NEW SAMARITAN BAPTIST CHURCH,NEWSAMARITAN.ORG,CHRISTIAN,1100 FLORIDA AVE NE,400735.75,137313.44,CHURCHES,1,,
-77.009413650053773,38.912938160863256,75,METROPOLITAN WESLEY AME ZION,METROPOLITANWESLEY.ORG,CHRISTIAN,1712 N CAPITOL ST NW,399183.77,138340.72,CHURCHES,1,,
-76.990017785979006,38.901131231430988,76,SACRED HEART OF JESUS INTL,,CHRISTIAN,1201 I ST NE,400866.08,137030.06,CHURCHES,1,,
-77.009489517617922,38.905127558713772,77,SAFE HAVEN OUTREACH MINISTRY,SAFEHAVENOUTREACHMINISTRY.ORG,CHRISTIAN,1140 N CAPITOL ST NW # 924,399177.1,137473.68,CHURCHES,1,,
-76.984667712428219,38.911784647179282,78,GATEWAY TO HEAVEN PENTACOSTAL,,CHRISTIAN,1910 W VIRGINIA AVE NE,401329.96,138212.74,CHURCHES,1,,
-76.998133724306868,38.893831354466869,79,IMANI TEMPLE,,CHRISTIAN,609 MARYLAND AVE NE,400162.1,136219.67,CHURCHES,1,,
-77.001788224155476,38.91348632359891,80,JAMES MEMORIAL BAPTIST CHURCH,,CHRISTIAN,1723 3RD ST NE,399845.11,138401.53,CHURCHES,1,,
-76.997845409605276,38.921219790237608,81,GREATER MT CALVARY HOLY CHURCH,GMCHC.ORG,CHRISTIAN,610 RHODE ISLAND AVE NE,400187.04,139260.01,CHURCHES,1,,
-76.977376099885461,38.897898708790201,82,GREATER MT PISGAH BAPTIST CHR,,CHRISTIAN,1818 GALES ST NE,401962.74,136671.42,CHURCHES,1,,
-76.978006671100232,38.898280783814037,83,PEACE BAPTIST CHURCH,PBC712.COM,CHRISTIAN,712 18TH ST NE,401908.03,136713.82,CHURCHES,1,,
-76.99127478953298,38.898718352619923,84,PEOPLES COMMUNITY CHURCH,<Null>,CHRISTIAN,653 11TH ST NE,400757.07,136762.2,CHURCHES,1,,
-76.980294284097624,38.897398912884647,85,PILGRIM A M E OUTREACH CHURCH,,CHRISTIAN,612 17TH ST NE,401709.61,136615.88,CHURCHES,1,,
-76.995960296007937,38.901537414482632,86,PILGRIM BAPTIST CHURCH,PILGRIMBAPTISTDC.ORG,CHRISTIAN,700 I ST NE,400350.61,137075.11,CHURCHES,1,,
-77.000271694937823,38.899343227707256,87,NORTHEAST HOLY TRINITY CHURCH,NEHOLYTRINITYCHURCH.ORG,CHRISTIAN,709 4TH ST NE,399976.63,136831.53,CHURCHES,1,,
-76.983386418988047,38.894257725460697,88,NEW ABUNDANT LIFE MISSIONARY,,CHRISTIAN,331 15TH ST NE,401441.44,136267.13,CHURCHES,1,,
-76.998736858360829,38.905117848106912,89,MT OLIVE BAPTIST CHURCH,MTOBC1140.ORG,CHRISTIAN,1140 6TH ST NE,400109.76,137472.56,CHURCHES,1,,
-76.988003514369296,38.890359917501797,90,LINCOLN PARK UNITED MTHDST CHR,UMC.ORG,CHRISTIAN,1301 N CAROLINA AVE NE,401040.96,135834.38,CHURCHES,1,,
-76.99199056348867,38.894599869159684,91,LIVING WATER WORSHIP CTR,,CHRISTIAN,1015 D ST NE,400695.02,136305.01,CHURCHES,1,,
-77.001077749923269,38.915301332020178,92,GRACE FELLOWSHIP BAPTIST MSN,,CHRISTIAN,319 T ST NE,399906.73,138603.01,CHURCHES,1,,
-76.983406156197887,38.895634657400237,93,HWY CHRISTIAN CHURCH,,CHRISTIAN,431 15TH ST NE,401439.7,136419.98,CHURCHES,1,,
-76.978769415620945,38.902348830045902,94,JESUS WAY TEMPLE,,CHRISTIAN,1700 MARYLAND AVE NE,401841.76,137165.39,CHURCHES,1,,
-76.994498452587649,38.897528273807382,95,GALATIANS BAPTIST CHURCH,,CHRISTIAN,806 F ST NE,400477.44,136630.07,CHURCHES,1,,
-76.985172050222189,38.893426312991963,96,LANE MEMORIAL CME,,CHRISTIAN,1423 C ST NE,401286.55,136174.81,CHURCHES,1,,
-77.044690737572736,38.898128188870054,97,UNITED CHURCH,THEUNITEDCHURCH.NET,CHRISTIAN,1920 G ST NW,396123.45,136697.6,CHURCHES,1,,
-77.031215557043865,38.899983515181702,98,NEW YORK AVENUE PRESBYTERIAN,,CHRISTIAN,1313 NEW YORK AVE NW,397292.44,136903.07,CHURCHES,1,,
-77.035460249318504,38.905340294180725,99,METRO POLITAN AFRICAN MTHDST,METROPOLITANAMEC.ORG,CHRISTIAN,1518 M ST NW,396924.47,137497.85,CHURCHES,1,,
-77.031606219194984,38.906944256299482,100,LUTHER PLACE MEMORIAL CHURCH,,CHRISTIAN,1226 VERMONT AVE NW,397258.82,137675.78,CHURCHES,1,,
-77.030472232353645,38.89866515751887,101,CHURCH OF THE EPIPHANY,EPIPHANYDC.ORG,CHRISTIAN,1317 G ST NW,397356.87,136756.7,CHURCHES,1,,
-77.033938518202717,38.902895068067927,102,GRACE COVENANT CHURCH,GRACECOVDC.ORG,CHRISTIAN,1000 VERMONT AVE NW # 1100,397056.36,137226.36,CHURCHES,1,,
-77.034289124652901,38.90917144425805,103,GRACE REFORMED CHURCH,GRACEREFORMEDCHURCHDC.ORG,CHRISTIAN,1405 15TH ST NW,397026.21,137923.1,CHURCHES,1,,
-77.033375297294938,38.899840856239557,104,KOREA TRUTH COMMISSION,<Null>,CHRISTIAN,733 15TH ST NW,397105.09,136887.3,CHURCHES,1,,
-77.000335605437172,38.884471934753662,105,EBENEZER UNITED METHODIST CHR,EBENEZERUMCCAPITOLHILL.SHUTTERFLY.COM,CHRISTIAN,400 D ST SE,399971.08,135180.7,CHURCHES,1,,
-77.000852913296782,38.887397764734089,106,CAPITOL HILL PRESBYTERIAN CHR,CAPITOLHILLPRESCHURCH.ORG,CHRISTIAN,201 4TH ST SE,399926.2,135505.49,CHURCHES,1,,
-76.991771515555911,38.901847262289039,107,HOLY NAME OF JESUS PARISH,HOLYNAMEPARISHDC.ORG,CHRISTIAN,920 11TH ST NE,400713.95,137109.53,CHURCHES,1,,
-76.997506030530488,38.881713720672053,108,CHRIST CHURCH CAPITOL HILL,WASHINGTONPARISH.ORG,CHRISTIAN,620 G ST SE,400216.59,134874.52,CHURCHES,1,,
-76.994386937246304,38.887797244834168,109,CHRIST OUR SHEPHERD CHURCH,CHRISTOURSHEPHERD.ORG,CHRISTIAN,801 N CAROLINA AVE SE,400487.18,135549.85,CHURCHES,1,,
-77.000948204807131,38.885158550440885,110,WASHINGTON CITY CHURCH OF THE BRETHREN,WASHINGTONCITYCOB.ORG,CHRISTIAN,337 N CAROLINA AVE SE,399917.93,135256.92,CHURCHES,1,,
-77.002713016473052,38.893761613003186,111,MADONNA HOUSE,MADONNAHOUSE.ORG,CHRISTIAN,220 C ST NE,399764.84,136211.93,CHURCHES,1,,
-77.005619298137859,38.891435457519592,112,UNITED CHURCH OF CHRIST,UCC.ORG,,100 MARYLAND AVE NE # 330,399512.7,135953.72,CHURCHES,1,,
-76.999850141831473,38.885292598964448,113,CAPITOL HILL UNITED MTHDST CHR,CHUMC.NET,CHRISTIAN,421 SEWARD SQ SE,400013.2,135271.8,CHURCHES,1,,
-76.991774390813049,38.878906623098352,114,CALVARY CHRISTIAN CHURCH,CALVARYCHRISTIAN.WEBS.COM,CHRISTIAN,909 11TH ST SE,400713.93,134562.94,CHURCHES,1,,
-76.983475955851119,38.888912169076477,115,SERVANTS OF THE LORD,SSVMUSA.ORG,CHRISTIAN,28 15TH ST SE,401433.78,135673.73,CHURCHES,1,,
-76.998931348159672,38.905439358117874,116,UPON THIS ROCK TABERNACLE,UPONTHISROCKTABERNACLE.COM,CHRISTIAN,513 M ST NE,400092.89,137508.25,CHURCHES,1,,
-76.995881735804872,38.880453400914035,117,CAPITAL CITY CHURCH,CAPCITYCHURCH.COM,CHRISTIAN,1333 H ST NE,400357.53,134734.62,CHURCHES,1,,
-76.998735430215135,38.90112750705422,118,TABLE CHURCH-H STREET PARISH,,CHRISTIAN,509 I ST NE,400109.89,137029.6,CHURCHES,1,,
-76.993486707142836,38.895726368481036,119,WASHINGTON COMMUNITY FELLOWSHP,WCFCHURCH.ORG,CHRISTIAN,907 MARYLAND AVE NE,400565.22,136430.05,CHURCHES,1,,
-77.009331830834185,38.91593136748422,120,ST MARTIN OF TOURS CATHOLIC CHURCH,STMARTINSDC.ORG,CHRISTIAN,1908 N CAPITOL ST NW,399190.9,138672.99,CHURCHES,1,,
-76.986084377386419,38.889521835572538,121,HOLY COMFORTER-ST CYPRIAN CHR,PARISHESONLINE.COM,CHRISTIAN,1357 E CAPITOL ST SE,401207.47,135741.37,CHURCHES,1,,
-76.985294791135814,38.88738576214088,122,THANKFUL BAPTIST CHURCH,,CHRISTIAN,1401 INDEPENDENCE AVE SE,401276.01,135504.26,CHURCHES,1,,
-77.008374200229724,38.876659377903671,123,ST VINCENT DE PAUL PARISH,STVINCENTDEPAULDC.ORG,CHRISTIAN,14 M ST SE,399273.55,134313.48,CHURCHES,1,,
-77.000833149238119,38.922141088441101,124,VERDADERA FE BAPTIST CHURCH,,CHRISTIAN,2432 4TH ST NE,399927.95,139362.28,CHURCHES,1,,
-76.990489838607203,38.883226679365784,125,HOLY TEMPLE CHURCH OF CHRIST,HTCONLINE.ORG,CHRISTIAN,439 12TH ST SE,400825.34,135042.51,CHURCHES,1,,
-76.984279578801278,38.882101311457902,126,LIBERTY BAPTIST CHURCH,LIBERTYBAPTISTCHURCHDC.ORG,CHRISTIAN,527 KENTUCKY AVE SE,401364.19,134917.66,CHURCHES,1,,
-76.990915715505096,38.884957314227393,127,GREATER PEOPLE UNION BAPTIST,,CHRISTIAN,1111 S CAROLINA AVE SE,400788.37,135234.62,CHURCHES,1,,
-77.002859957297716,38.890120244876769,128,LUTHERAN CHURCH OF REFORMATION,REFORMATIONDC.ORG,CHRISTIAN,212 E CAPITOL ST NE,399752.08,135807.71,CHURCHES,1,,
-76.98104114394701,38.890117120175503,129,MT MORIAH BAPTIST CHURCH,MOUNTMORIAHCHURCH.ORG,CHRISTIAN,1636 E CAPITOL ST NE,401644.99,135807.53,CHURCHES,1,,
-76.987764380651825,38.890103244069252,130,HOUSE OF GOD,<Null>,CHRISTIAN,1310 E CAPITOL ST NE,401061.71,135805.89,CHURCHES,1,,
-76.991178433537797,38.879924167683569,131,NEW HOPE FREEWILL BAPTIST CHR,NEWHOPEFWBC.ORG,CHRISTIAN,754 11TH ST SE,400765.63,134675.9,CHURCHES,1,,
-77.046947834714459,38.896453729347925,132,HARDWOOD REVIVAL,,CHRISTIAN,510 21ST ST NW,395927.56,136511.82,CHURCHES,1,,
-77.035997914208423,38.900443277337459,133,ST JOHN'S EPISCOPAL CHURCH,STJOHNSGEORGETOWN.ORG,CHRISTIAN,1525 H ST NW,396877.62,136954.26,CHURCHES,1,,
-77.034926199444087,38.910235861777487,134,ST LUKES EPISCOPAL CHURCH,STLUKESDC.ORG,CHRISTIAN,1514 15TH ST NW,396971,138041.28,CHURCHES,1,,
-77.029151356104379,38.902895640066646,135,ST PAULS,,CHRISTIAN,1275 K ST NW,397471.6,137226.28,CHURCHES,1,,
-77.032602831319778,38.906478881319259,136,NATIONAL CITY CHRISTIAN CHURCH,NATIONALCITYCC.ORG,CHRISTIAN,5 THOMAS CIR NW # 2,397172.36,137624.15,CHURCHES,1,,
-77.027767120959723,38.90707116856629,137,MT ZION PENTECOSTAL CHURCH,,CHRISTIAN,1112 N ST NW,397591.81,137689.76,CHURCHES,1,,
-77.035464300617946,38.918589311140749,138,AUGUSTANA LUTHERAN CHURCH,AUGUSTANADC.ORG,CHRISTIAN,2100 NEW HAMPSHIRE AVE NW,396924.69,138968.6,CHURCHES,1,,
-77.037003488296648,38.925884009220766,139,DC SPANISH SEVENTH-DAY ADVENTIST,DCSPANISHDC.ADVENTISTCHURCH.ORG,CHRISTIAN,1610 COLUMBIA RD NW,396874.22,139902.78,CHURCHES,1,,
-77.030012650939369,38.928896538766345,140,SOUTHWEST CHURCH OF CHRIST,13THSTCOC.WORDPRESS.COM,CHRISTIAN,3100 13TH ST NW,397397.84,140112.62,CHURCHES,1,,
-77.037396624472905,38.932739426140429,141,SPANISH CATHOLIC CTR,CATHOLICCHARITIESDC.ORG,CHRISTIAN,1618 MONROE ST NW,396757.76,140539.45,CHURCHES,1,,
-77.036082727205581,38.934558345736981,142,TRINITY AME ZION CHURCH,TRINITYAMEZ.ORG,CHRISTIAN,3505 16TH ST NW,396871.76,140741.32,CHURCHES,1,,
-77.036039208018849,38.932888309496398,143,TRUTHABOUTIT.NET,KYLEWEIDIE.COM,CHRISTIAN,3355 16TH ST NW,396875.46,140555.93,CHURCHES,1,,
-77.049269965452837,38.91582334136509,144,OUR LADY QUEEN-THE AMERICAS,OURLADYQUEENOFTHEAMERICASDC.ORG,CHRISTIAN,2200 CALIFORNIA ST NW,395727.28,138662.11,CHURCHES,1,,
-77.034819359052065,38.917877756867917,145,HANDMAIDS-THE HOLY CHILD JESUS,,CHRISTIAN,2028 15TH ST NW,396980.59,138889.59,CHURCHES,1,,
-77.035750132498251,38.933487270457697,146,ST STEPHEN & INCARNATION CHR,SAINTSTEPHENSDC.ORG,CHRISTIAN,1525 NEWTON ST NW,396900.55,140622.41,CHURCHES,1,,
-77.059364442561261,38.952938720608799,147,OBLATE SISTERS-THE MOST HOLY,,CHRISTIAN,2907 ELLICOTT TER NW,394854.52,142782.76,CHURCHES,1,,
-77.030684663466786,38.912799655807888,148,LIFE CHURCH,LIFECHURCHOFATLANTA.COM,CHRISTIAN,1323 R ST NW,397338.97,138325.75,CHURCHES,1,,
-77.063965507856949,38.950211020071748,149,WASHINGTON ETHIOPIAN SEVENTH,ETHIOPIAN22.ADVENTISTCHURCHCONNECT.OR,CHRISTIAN,3150 CHESAPEAKE ST NW,394455.49,142480.23,CHURCHES,1,,
-77.070309588326865,38.953748349568862,150,ST PAUL'S LUTHERAN CHURCH,STPAULSLUTHERANDC.360UNITE.COM,CHRISTIAN,4900 CONNECTICUT AVE NW,393905.87,142873.31,CHURCHES,1,,
-77.035609490368856,38.917227657656319,151,FREEDOM BAPTIST CHURCH,FREEDOMBAPTISTDC.ORG,CHRISTIAN,1519 U ST NW,396912.04,138817.45,CHURCHES,1,,
-77.036050534518054,38.927004527383708,152,NATIONAL BAPTIST MEMORIAL CHR,NBMCHURCHDC.ORG,CHRISTIAN,1501 COLUMBIA RD NW,396874.22,139902.78,CHURCHES,1,,
-77.033750817364066,38.930883743378935,153,KELSEY TEMPLE CHR-GOD IN CHRST,KELSEYTEMPLE.ORG,CHRISTIAN,1435 PARK RD NW,397073.79,140333.33,CHURCHES,1,,
-77.028472870149159,38.914676112120389,154,12TH STREET CHRISTIAN CHURCH,12THSTCC.ORG,CHRISTIAN,1812 12TH ST NW,397530.86,138533.99,CHURCHES,1,,
-77.035988808620303,38.926037683720025,155,ALL SOULS CHURCH UNITARIAN,ALL-SOULS.ORG,CHRISTIAN,1500 HARVARD ST NW,396879.53,139795.45,CHURCHES,1,,
-77.036936757829125,38.93313368578886,156,CANAAN BAPTIST CHURCH,CANAANBAPT.COM,CHRISTIAN,1607 MONROE ST NW,396797.65,140583.2,CHURCHES,1,,
-77.043828332663892,38.919324435669566,157,GOODWILL BAPTIST CHURCH,GOODWILLBAPTISTCHURCHDC.ORG,CHRISTIAN,1862 KALORAMA RD NW,396199.39,139050.52,CHURCHES,1,,
-77.027455006817419,38.919012606967911,158,TRUE GOSPEL BAPTIST CHURCH,TRUEGOSPELBC.COM,CHRISTIAN,1106 W ST NW,397619.28,139015.35,CHURCHES,1,,
-77.044320060810293,38.924386568757903,159,SEVENTH PILLAR,SEVENTHPILLAR.NET,CHRISTIAN,2707 ADAMS MILL RD NW,396157.02,139612.48,CHURCHES,1,,
-77.034269547032395,38.914737884344675,160,ST JAMES APOSTLE CHURCH,,CHRISTIAN,1819 15TH ST NW,397028.14,138541.02,CHURCHES,1,,
-77.032004936551445,38.934767445180761,161,GREATER TRIED STONE BAPTIST,,CHRISTIAN,1363 OTIS PL NW,397225.32,140764.4,CHURCHES,1,,
-77.034181917372138,38.912819043844095,162,FIFTEENTH ST PRESBYTERIAN CHR,<Null>,CHRISTIAN,1701 15TH ST NW,397035.66,138328.01,CHURCHES,1,,
-77.036881482755746,38.914348289234674,163,UNIVERSALIST NATIONAL MEML CHR,UNIVERSALISTCHURCH.ORG,CHRISTIAN,1810 16TH ST NW,396801.6,138497.86,CHURCHES,1,,
-77.032171871879711,38.93715865286206,164,ABBAS HOUSE CHR-GOD-PROPHECY,ABBASHOUSECOGOP.ORG,CHRISTIAN,1371 SPRING RD NW,397210.94,141029.85,CHURCHES,1,,
-77.046677724467131,38.915100225531397,165,ST MARGARET'S EPISCOPAL CHURCH,STMARGARETSDC.ORG,CHRISTIAN,1820 CONNECTICUT AVE NW,395952.05,138581.72,CHURCHES,1,,
-77.032443088727618,38.930926993281552,166,LA RED CHURCH,IGLESIALARED.NET,CHRISTIAN,3333 14TH ST NW,397187.18,140338.09,CHURCHES,1,,
-77.029455153026817,38.932248762901857,167,MT RONA MISSIONARY BAPTIST CHR,MTRONACHURCH.ORG,CHRISTIAN,3431 13TH ST NW,397446.3,140484.73,CHURCHES,1,,
-77.029269843051381,38.925022160265534,168,GREATER FIRST BAPTIST CHURCH,,CHRISTIAN,2701 13TH ST NW,397462.11,139682.51,CHURCHES,1,,
-77.040254336865431,38.920792637723878,169,KING EMMANUEL BAPTIST CHURCH,KINGEMMANUELBAPTISTCHURCH.COM,CHRISTIAN,2324 ONTARIO RD NW,396509.4,139213.36,CHURCHES,1,,
-77.066394941726415,38.948106142054229,170,ONE LORD ONE SAFE CHURCH INC,ONENESSJG.ORG,CHRISTIAN,4500 CONNECTICUT AVE NW,394244.73,142246.72,CHURCHES,1,,
-77.034592691425317,38.927693023178037,171,TABLE CHURCH-COHI PARISH,THETABLECHURCHDC.ORG,CHRISTIAN,1459 COLUMBIA RD NW,397000.66,139979.16,CHURCHES,1,,
-77.036123756065166,38.911732684269069,172,CHURCH OF THE HOLY CITY,SWEDENBORGCENTER.ORG,CHRISTIAN,1611 16TH ST NW,396867.2,138207.48,CHURCHES,1,,
-77.027814639119313,38.932244390452958,173,PARK ROAD COMMUNITY CHURCH,PARKROADCOMMUNITYCHURCH.ORG,CHRISTIAN,1019 PARK RD NW,397588.54,140484.2,CHURCHES,1,,
-77.071921771657529,38.92289538567762,174,ST LUKES UNITED METHODIST CHR,GBHEM.ORG,CHRISTIAN,3655 CALVERT ST NW,393763.43,139448.47,CHURCHES,1,,
-77.068648525380524,38.924898733621006,175,ST NICHOLAS CATHEDRAL,STNICHOLASDC.ORG,CHRISTIAN,3500 MASSACHUSETTS AVE NW,394047.44,139670.64,CHURCHES,1,,
-77.098068082410123,38.920066580433819,176,ST PATRICKS EPISCOPAL CHR,STPATRICKSCHURCHDC.ORG,CHRISTIAN,4925 MACARTHUR BLVD NW,391495.79,139136.56,CHURCHES,1,,
-76.928010761745512,38.888586761554812,177,DIVINE MISSION CHURCH,DIVINEMISSIONCHURCH.COM,CHRISTIAN,1 51ST ST SE,406245.82,135639.94,CHURCHES,1,,
-76.969794988983423,38.936945141597093,178,SHARON BAPTIST CHURCH,,CHRISTIAN,3825 26TH ST NE,402618.94,141006.09,CHURCHES,1,,
-77.091385479298452,38.916095268040806,179,ST PATRICKS EPISCOPAL CHURCH,STPATSDC.ORG,CHRISTIAN,4700 WHITEHAVEN PKWY NW,392074.86,138695.11,CHURCHES,1,,
-77.065074601900065,38.910144316798693,180,LUTHERAN CHURCH GEORGETOWN,GEORGETOWNLUTHERAN.COM,CHRISTIAN,1556 WISCONSIN AVE NW,394356.18,138032.55,CHURCHES,1,,
-77.056682380624267,38.908695373042185,181,PARISH OF CHRIST THE KING,PARISHOFCHRISTTHEKING.ORG,CHRISTIAN,2727 O ST NW,395083.95,137871.22,CHURCHES,1,,
-77.094736829971936,38.91638437901333,182,OUR LADY OF VICTORY CHURCH,OLVPARISHDC.COM,CHRISTIAN,4835 MACARTHUR BLVD NW,391784.25,138727.5,CHURCHES,1,,
-77.05288482747784,38.927600958316951,183,ALL SOULS MEMORIAL EPISCOPAL,<Null>,CHRISTIAN,2300 CATHEDRAL AVE NW,395414.54,139969.7,CHURCHES,1,,
-77.072834261426891,38.926931089318735,184,TEMPLE MICAH,TEMPLEMICAH.ORG,JEWISH,2829 WISCONSIN AVE NW,393684.66,139896.53,SYNAGOGUES,1,,
-77.063965507856949,38.950211020071748,185,CAPITAL MEMORIAL SEVENTH-DAY,CAPITALMEMORIAL.ORG,CHRISTIAN,3150 CHESAPEAKE ST NW,394455.49,142480.23,CHURCHES,1,,
-77.069674106013665,38.906979283568269,186,HOLY TRINITY CATHOLIC CHURCH,TRINITY.ORG,CHRISTIAN,3513 N ST NW,393956.99,137681.5,CHURCHES,1,,
-77.070358413164357,38.927241321190031,187,ST SOPHIA GREEK ORTHODOX,,CHRISTIAN,3601 MASSACHUSETTS AVE NW,393899.37,139930.8,CHURCHES,1,,
-77.061454653787607,38.906217015237509,188,FIFTH CHURCH OF CHRIST SCIENTIST,CSGEORGETOWN.COM,CHRISTIAN,1238 31ST ST NW,394669.85,137596.37,CHURCHES,1,,
-77.058075893313472,38.93537041333235,189,WILLIAMS CORNER WORSHIP CTR,WILLIAMSCORNER.COM,CHRISTIAN,3435 CONNECTICUT AVE NW,394964.97,140832.45,CHURCHES,1,,
-77.055656175796116,38.907571174060017,190,FIRST BAPTIST CHR/GEORGETOWN,FBCGT.ORG,CHRISTIAN,2624 DUMBARTON ST NW,395172.88,137746.37,CHURCHES,1,,
-77.057222935754339,38.907029916173308,191,KESHER ISRAEL GEORGETOWN,,JEWISH,2801 N ST NW,395036.95,137686.37,SYNAGOGUES ORTHODOX,1,,
-77.045278657725788,38.902119837564669,192,NUEVA VIDA INC,,CHRISTIAN,2000 K ST NW # 200,396072.67,137140.73,CHURCHES,1,,
-77.069349753659338,38.925325494197843,193,REORGANIZED CHURCH-JESUS CHRST,COFCHRISTDC.ORG,CHRISTIAN,3526 MASSACHUSETTS AVE NW,393986.67,139718.06,CHURCHES,1,,
-77.068037301211319,38.92536509154138,194,SGI BUDDHIST ASSN,SGI-VA.ORG,BUDDHIST,3417 MASSACHUSETTS AVE NW,394100.48,139722.37,CHURCHES,1,,
-77.054975773318475,38.90914993900342,195,JERUSALEM BAPTIST CHURCH,JBCGDC.ORG,CHRISTIAN,2600 P ST NW,395232,137921.59,CHURCHES,1,,
-77.056438372511124,38.907477021899453,196,EPIPHANY CATHOLIC CHURCH,GEORGETOWNEPIPHANY.ORG,CHRISTIAN,2712 DUMBARTON ST NW,395105.03,137735.96,CHURCHES,1,,
-77.062525577735499,38.907899747463958,197,DUMBARTON UNITED METHODIST CHR,DUMBARTONUMC.ORG,CHRISTIAN,3133 DUMBARTON ST NW,394577.09,137783.23,CHURCHES,1,,
-77.062025248014692,38.903581499779662,198,GRACE EPISCOPAL CHURCH,GRACEDC.ORG,CHRISTIAN,1041 WISCONSIN AVE NW,394620.16,137303.84,CHURCHES,1,,
-77.057529185918455,38.9368001210808,199,ADAS ISRAEL CONGREGATION,ADASISRAEL.ORG,JEWISH,2850 QUEBEC ST NW,395012.47,140991.13,SYNAGOGUES,1,,
-77.058536918517419,38.908275480307445,200,MT ZION COMMUNITY HOUSE,,CHRISTIAN,2906 O ST NW,394923.07,137824.71,CHURCHES,1,,
-77.058380707335132,38.908010893178428,201,MT ZION UNITED METHODIST CHR,MTZIONUMCDC.ORG,CHRISTIAN,1334 29TH ST NW,394936.6,137795.33,CHURCHES,1,,
-77.062106865709609,38.909532823992201,202,GEORGETOWN PRESBYTERIAN CHURCH,GTOWNPRES.ORG,CHRISTIAN,3115 P ST NW,394613.53,137964.49,CHURCHES,1,,
-76.971692976980989,38.925803059376662,203,SECOND NEW ST PAUL BAPTIST,SNSPBC.ORG,CHRISTIAN,2400 FRANKLIN ST NE,402454.77,139769.17,CHURCHES,1,,
-76.979338205838374,38.864238410608721,204,ANACOSTIA INTERNATIONAL,,CHRISTIAN,1716 V ST SE,401793.38,132934.83,CHURCHES,1,,
-76.987288984675757,38.865087148515947,205,DELAWARE AVE BAPTIST CHURCH,DABAPTISTCHURCH.ORG,CHRISTIAN,1301 V ST SE,401103.34,133028.92,CHURCHES,1,,
-76.99227632462707,38.930821160142557,206,IMMANUEL BIBLE ASSEMBLY,,CHRISTIAN,3303 10TH ST NE,400669.89,140325.87,CHURCHES,1,,
-76.994005232148879,38.942170908309386,207,DIVINE WORD HOUSE,,CHRISTIAN,832 VARNUM ST NE,400519.9,141585.78,CHURCHES,1,,
-76.980128016017389,38.931885048746267,208,JONES R L AME ZION CHURCH,,CHRISTIAN,1723 LAWRENCE ST NE,401723.2,140444.13,CHURCHES,1,,
-76.96381527708634,38.871137057449012,209,PENNSYLVANIA AVENUE BAPT CHR,PABC-DC.ORG,CHRISTIAN,3000 PENNSYLVANIA AVE SE,403140.27,133701.05,CHURCHES,1,,
-76.959494062054503,38.861603565607737,210,LUTHERAN CHURCH-THE HOLY,HOLYCOMFORTERLCDC.ORG,CHRISTIAN,3319 ALABAMA AVE SE,403515.73,132642.92,CHURCHES,1,,
-76.918719032306385,38.886047507853341,211,TRUE BELIEVERS,,CHRISTIAN,5670 CENTRAL AVE SE,407052.2,135358.74,CHURCHES,1,,
-76.911979902148488,38.893448774086757,212,TRUE WAY CHURCH,,CHRISTIAN,317 62ND ST NE,407636.1,136180.88,CHURCHES,1,,
-76.982449817389252,38.862904502829835,213,LITTLE FOUNTAIN CHURCH,LITTLEFOUNTAINBIBLEWAY.ORG,CHRISTIAN,2224 16TH ST SE,401523.36,132786.7,CHURCHES,1,,
-76.97413541949193,38.87110475638567,214,LITTLE ROCK CHR OF DELIVERANCE,,CHRISTIAN,2214 NAYLOR RD SE,402244.7,133697.16,CHURCHES,1,,
-76.981440406328389,38.856068124355758,215,GREATER MT JOY CHR OF CHRIST,,CHRISTIAN,1619 FRANKFORD ST SE,401611.12,132027.83,CHURCHES,1,,
-77.089583498799726,38.939820970748123,216,UNITED METHODIST PUB HSE,UMPH.ORG,CHRISTIAN,4500 MASSACHUSETTS AVE NW,392233.72,141328.71,CHURCHES,1,,
-76.979636196583371,38.9291887769254,217,CAPITOL TEMPLE CHR-GOD,,CHRISTIAN,3100 18TH ST NE,401765.91,140144.83,CHURCHES,1,,
-76.985723299193324,38.929037078104194,218,BROOKLAND UNION BAPTIST CHURCH,BROOKLANDUNIONBAPTIST.ORG,CHRISTIAN,3101 14TH ST NE,401238.11,140127.89,CHURCHES,1,,
-76.979327481170188,38.932697909613999,219,MASJID HADEETH,MAQWH.COM,ISLAMIC,3415 18TH ST NE,401792.59,140534.38,MOSQUES,1,,
-76.985338344642599,38.851558247044458,220,BRIGHTER DAY MINISTRIES,BRIGHTERDAYDC.ORG,CHRISTIAN,2525 12TH PL SE,401272.87,131527.14,CHURCHES,1,,
-76.989153068500443,38.923707946273076,221,LIGHT OF THE WORLD CHURCH,,CHRISTIAN,1222 RHODE ISLAND AVE NE,400940.79,139536.27,CHURCHES,1,,
-76.973898723986778,38.924991292683572,222,MEKANE HIWOT,,CHRISTIAN,2715 22ND ST NE,402263.53,139679,CHURCHES,1,,
-76.928275147528311,38.905011521589216,223,ANTIOCH BAPTIST CHURCH/DC,ANTIOCHABC.ORG,CHRISTIAN,1105 50TH ST NE,406221.45,137463.2,CHURCHES,1,,
-76.962578636667331,38.863100983515992,224,WILLING HEART COMMUNITY CHURCH,WILLINGHEART.ORG,CHRISTIAN,3110 W ST SE,403247.95,132809.03,CHURCHES,1,,
-76.972794015206446,38.872183838726741,225,SECOND ST JAMES BAPTIST CHURCH,,CHRISTIAN,2301 MINNESOTA AVE SE,402361.07,133816.98,CHURCHES,1,,
-76.938976742508132,38.897302120591881,226,CENTRAL UNION BAPTIST CHURCH,CUBCDC.ORG,CHRISTIAN,4401 FOOTE ST NE,405293.79,136606.72,CHURCHES,1,,
-76.985059122624435,38.865719004975354,227,AGAPE 1 CHURCH OF CHRIST,AGAPE1CHURCH.ORG,CHRISTIAN,2002 14TH ST SE,401296.85,133099.09,CHURCHES,1,,
-76.973973568163288,38.871588021397251,228,BETHEL CHRISTIAN CHURCH,BETHELDC.ORG,CHRISTIAN,2217 MINNESOTA AVE SE,402258.73,133750.81,CHURCHES,1,,
-76.989907852694714,38.86411990033789,229,BETHEL CHRISTIAN FELLOWSHIP,,CHRISTIAN,2220 MARTIN LUTHER KING JR AVE,400876.07,132921.52,CHURCHES,1,,
-76.958972137624301,38.882211822327569,230,POTOMAC BAPTIST CHURCH,,CHRISTIAN,3340 MINNESOTA AVE SE,403560,134930.61,CHURCHES,1,,
-76.918954781265413,38.890068203045828,231,SUPREME COUNCIL-THE HSE-JACOB,,CHRISTIAN,5740 E CAPITOL ST NE,407031.35,135805.05,CHURCHES,1,,
-76.925016407954587,38.899480144431799,232,TABERNACLE BAPTIST CHURCH,TABERNACLEBAPTISTCHURCH-DC.ORG,CHRISTIAN,719 DIVISION AVE NE,406504.61,136849.4,CHURCHES,1,,
-76.991687498887842,38.932299653356246,233,ST ANTHONYS CATHOLIC CHURCH,,CHRISTIAN,1029 MONROE ST NE,400720.93,140490,CHURCHES,1,,
-77.00397980510364,38.940380325942925,234,ST JOSAPHAT'S UKRAINIAN SMNRY,SJUCS.ORG,CHRISTIAN,201 TAYLOR ST NE,399655.17,141387,CHURCHES,1,,
-76.99081839968045,38.92736105208045,235,GATE OF HEAVEN HOLY CHURCH,,CHRISTIAN,2932 12TH ST NE,400796.34,139941.78,CHURCHES,1,,
-76.98644681501095,38.94147771907906,236,OLD WAY BAPTIST CHURCH,,CHRISTIAN,1335 MICHIGAN AVE NE,401175.17,141508.9,CHURCHES,1,,
-76.98584106314577,38.865653701309434,237,ST PHILLIPS EPISCOPAL CHURCH,STPHILIPANACOSTIA.COM,CHRISTIAN,2001 14TH ST SE,401228.99,133091.83,CHURCHES,1,,
-76.987761086087133,38.865629145169066,238,ST TERESA OF AVILA CHURCH,STACHURCH.ORG,CHRISTIAN,1244 V ST SE,401062.36,133089.08,CHURCHES,1,,
-76.956094562157446,38.862997020457343,239,ST TIMOTHY'S EPISCOPAL CHURCH,STTIMOTHYSOFDC.ORG,CHRISTIAN,3601 ALABAMA AVE SE,403810.7,132797.74,CHURCHES,1,,
-76.956974534658642,38.886282353691477,240,EDGEWOOD BAPTIST CHURCH,EDGEWOODBAPTISTCHURCHDC.ORG,CHRISTIAN,3408 C ST SE,403733.11,135382.55,CHURCHES,1,,
-76.965934176587439,38.924832047404799,241,UNITY BAPTIST CHURCH,UNITY-BAPTIST-CHURCH.COM,CHRISTIAN,2706 BLADENSBURG RD NE,402954.17,139661.55,CHURCHES,1,,
-76.935804214963838,38.899192807635714,242,REDEEMING LOVE CHRISTIAN CTR,,CHRISTIAN,4611 NANNIE HELEN BURROUGHS AV,405568.85,136816.79,CHURCHES,1,,
-76.920785236447358,38.895645552832406,243,REFUGE TEMPLE,,CHRISTIAN,420 56TH ST NE,406872.01,136424.04,CHURCHES,1,,
-76.934399999832934,38.911207280300431,244,PEACE FELLOWSHIP CHURCH,PEACEFELLOWSHIPCHURCH.ORG,CHRISTIAN,1601 KENILWORTH AVE NE,405689.7,138150.58,CHURCHES,1,,
-76.930796212869495,38.890496059487475,245,PEACE LUTHERAN CHURCH,,CHRISTIAN,15 49TH PL NE,406004,135851.7,CHURCHES,1,,
-76.938873708775787,38.90090613289771,246,REVELATION KNOWLEDGE CHRISTIAN,,CHRISTIAN,801 44TH ST NE,405302.46,137006.8,CHURCHES,1,,
-76.934955942912922,38.906440012877084,247,SEVENTH CHR-CHRIST SCIENTIST,ADHERENTSOFTRUTH.ORG,CHRISTIAN,1204 47TH PL NE,405641.86,137621.34,CHURCHES,1,,
-76.971254350996901,38.93193536140263,248,MCKENDREE UNITED MTHDST CHR,MSBUMC.ORG,CHRISTIAN,2421 LAWRENCE ST NE,402492.59,140449.92,CHURCHES,1,,
-76.985221706386724,38.937517524354831,249,FRANCISCAN MONASTERY,MYFRANCISCAN.ORG,CHRISTIAN,1400 QUINCY ST NE,401281.45,141069.3,CONVENTS & MONASTERIES,1,,
-76.986265105090766,38.85423161233637,250,UNIVERSAL HOLINESS CHURCH,,CHRISTIAN,2426 ELVANS RD SE,401192.38,131823.89,CHURCHES,1,,
-76.979094253043669,38.943785189761762,251,OUR REDEEMER CHURCH,OURREDEEMERCHURCH.ORG,CHRISTIAN,1725 MICHIGAN AVE NE,401812.53,141765.17,CHURCHES,1,,
-76.947043281664065,38.871694402360831,252,DUPONT PARK SEVENTH-DAY ADVENTIST CHURCH,DUPONTPARK.ORG,CHRISTIAN,3985 MASSACHUSETTS AVE SE,404595.69,133763.63,CHURCHES,1,,
-76.97289838587011,38.924771982664673,253,WOODRIDGE CHURCH OF OUR LORD,,CHRISTIAN,2226 EVARTS ST NE,402350.28,139654.68,CHURCHES,1,,
-76.928882980913983,38.890070075211398,254,EAST CAPITOL CHURCH OF CHRIST,"EASTCAPITOLSTCOC,ORG",CHRISTIAN,5026 E CAPITOL ST NE,406170.02,135804.54,CHURCHES,1,,
-77.012637198874444,38.829806136481047,255,LIVING WORD CHURCH,,CHRISTIAN,4101 MARTIN LUTHER KING JR AVE,398902.92,129112.48,CHURCHES,1,,
-76.936396445854029,38.872777574733398,256,FIRST UNITED METHODIST CHURCH,,CHRISTIAN,4323 BOWEN RD SE,405519.52,133884.46,CHURCHES,1,,
-76.937906838709637,38.894402393413216,257,GRACE APOSTOLIC CHURCH,GRACEAPOSTOLICCHURCH.NET,CHRISTIAN,4417 DIX ST NE,405386.82,136284.89,CHURCHES,1,,
-76.972048988574471,38.920193662402795,258,FIRST CHRIST APOSTOLIC CHURCH,,CHRISTIAN,2130 24TH PL NE,402424.09,139146.47,CHURCHES,1,,
-77.081741351886706,38.956239629815279,259,FRENCH SPEAKING PARISH OF ST L0UIS,,CHRISTIAN,4125 GARRISON ST NW,392915.23,143150.69,CHURCHES,1,,
-76.990628665919473,38.931040752331931,260,TRUE PENTECOSTAL CHR OF CHRIST,,CHRISTIAN,3311 12TH ST NE,400812.75,140350.26,CHURCHES,1,,
-77.000861014168422,38.93772996996816,261,MARIAN FATHERS,,CHRISTIAN,3885 HAREWOOD RD NE,399925.55,141092.78,CHURCHES,1,,
-77.003456667119053,38.939592477235614,262,UKRAINIAN CATHOLIC NATL SHRINE,UCNS-HOLYFAMILY.ORG,CHRISTIAN,4250 HAREWOOD RD NE,399700.52,141299.54,CHURCHES,1,,
-76.94648417990004,38.900859600233375,263,BETHESDA NEW LIFE GOSPEL CHR,BNLGCHURCH.ORG,CHRISTIAN,750 KENILWORTH AVE NE,404642.31,137001.22,CHURCHES,1,,
-76.916769336388199,38.894714267765053,264,BEULAH BAPTIST OF DEANWOOD HTS,,CHRISTIAN,5820 DIX ST NE,407220.48,136320.97,CHURCHES,1,,
-76.978925047797532,38.928507352163493,265,PLEASANT GROVE BAPTIST CHURCH,,CHRISTIAN,1800 HAMLIN ST NE,401827.59,140069.2,CHURCHES,1,,
-76.978258476050968,38.944693432927885,266,RHEMA CHRISTIAN CTR CHURCH,RHEMACHRISTIANCENTER.ORG,CHRISTIAN,1825 MICHIGAN AVE NE,401884.96,141866.01,CHURCHES,1,,
-76.97237185910376,38.930638974908796,267,SPIRIT OF THE LORD BAPTIST CHR,,CHRISTIAN,2385 RHODE ISLAND AVE NE,402395.74,140305.98,CHURCHES,1,,
-76.96405334425431,38.926521084293945,268,NEW CANAAN BAPTIST CHURCH,NEWCANAANBAPTISTCHURCH.ORG,CHRISTIAN,2826 BLADENSBURG RD NE,403117.19,139849.11,CHURCHES,1,,
-76.974139299224703,38.929726296947138,269,NEW COVENANT CHURCH,,CHRISTIAN,2119 RHODE ISLAND AVE NE,402242.52,140204.62,CHURCHES,1,,
-76.930794275956643,38.898672146462673,270,SECOND NEW ST LUKE BAPTIST CHR,,CHRISTIAN,4918 NANNIE HELEN BURROUGHS AV,406003.48,136759.31,CHURCHES,1,,
-76.937986066887717,38.902583381985451,271,NEW BEGINNING CHRISTIAN,,CHRISTIAN,4421 SHERIFF RD NE,405379.33,137193.04,CHURCHES,1,,
-76.931379667511166,38.892080076331375,272,NEW BEGINNING WAY-THE CROSS,,CHRISTIAN,4928 BLAINE ST NE,405953.25,136027.5,CHURCHES,1,,
-76.936792884496711,38.902550312466715,273,NEW BIRTH PRAYER MSSNRY BAPT,,CHRISTIAN,4515 SHERIFF RD NE,405482.83,137189.44,CHURCHES,1,,
-76.936809247597139,38.90307938217758,274,RANDALL MEMORIAL METHODIST CHR,RANDALLUMC.ORG,CHRISTIAN,1002 46TH ST NE,405481.37,137248.17,CHURCHES,1,,
-76.935511324620222,38.909862952970663,275,RCCG NEW WINE ASSEMBLY,RCCGNEWWINEASSEMBLY.ORG,CHRISTIAN,1515 KENILWORTH AVE NE # B,405593.42,138001.28,CHURCHES,1,,
-76.984532955638215,38.926535047460398,276,CHURCH-THE REDEEMER,REDEEMERPRESBYDC.ORG,CHRISTIAN,1423 GIRARD ST NE,401341.37,139850.16,CHURCHES,1,,
-77.011896851358429,38.873776744611355,277,CARRON BAPTIST CHURCH,,CHRISTIAN,1354 1ST ST SW,398967.84,133993.52,CHURCHES,1,,
-76.971455835964122,38.930789914235525,278,RISING SUN BAPTIST CHURCH,RISINGSUNDC.ORG,CHRISTIAN,3126 SOUTH DAKOTA AVE NE,402475.16,140322.76,CHURCHES,1,,
-76.981532594307978,38.927695963975047,279,ST PAUL BAPTIST CHURCH,,CHRISTIAN,1611 BRENTWOOD RD NE,401601.51,139979.08,CHURCHES,1,,
-76.93890011624849,38.893225252649579,280,EAST FRIENDSHIP BAPTIST CHURCH,EFBCHURCH.ORG,CHRISTIAN,4401 BROOKS ST NE,405300.74,136154.16,CHURCHES,1,,
-76.979904752403868,38.869188001662224,281,GARDEN MEMORIAL PRESBYTERIAN,GARDEN.COM,CHRISTIAN,1720 MINNESOTA AVE SE,401744.09,133484.26,CHURCHES,1,,
-76.928732976262935,38.882497715606533,282,GREATER GOOD SAMARITAN BAPTIST CHURCH,,CHRISTIAN,5100 E ST SE,406183.69,134963.96,CHURCHES,1,,
-76.938977439118972,38.902552284657965,283,GOOD SUCCESS CHRISTIAN CHURCH,,CHRISTIAN,4401 SHERIFF RD NE,405293.34,137189.53,CHURCHES,1,,
-76.935460254110239,38.898897414032625,284,MT SINAI PRIMITIVE BAPTIST CHR,,CHRISTIAN,4625 GAULT PL NE,405598.71,136784.02,CHURCHES,1,,
-76.945545274702582,38.899247480368174,285,MT VERNON UNITED METHODIST CHR,,CHRISTIAN,4147 MINNESOTA AVE NE,404723.86,136822.31,CHURCHES,1,,
-76.970337046753301,38.85527101775871,286,YOUNGS MEMORIAL CHURCH,CHURCH-OF-CHRIST.ORG,CHRISTIAN,2490 ALABAMA AVE SE,402574.89,131939.6,CHURCHES,1,,
-76.992956068537509,38.948557182885011,287,FAITH UNITED CHURCH OF CHRIST,FAITHUNITEDDC.COM,CHRISTIAN,4900 10TH ST NE,400610.8,142294.72,CHURCHES,1,,
-76.990060878070565,38.929441099776483,288,GRACE UNITED BAPTIST CHURCH,,CHRISTIAN,1219 JACKSON ST NE,400862,140172.69,CHURCHES,1,,
-76.952319164185511,38.893911993003115,289,ALMAS TEMPLE,,JEWISH,260 35TH ST NE,404136.57,136229.7,SYNAGOGUES,1,,
-76.969693404214311,38.85464782939831,290,FAITH TABERNACLE OF PRAYER,FAITHTABERNACLEOFPRAYER.ORG,CHRISTIAN,2465 ALABAMA AVE SE,402630.78,131870.44,CHURCHES,1,,
-77.005153171607489,38.842229370474357,291,NEW DAY ASSEMBLY OF CHRIST,NEWDAYASSEMBLYOFCHRIST.COM,CHRISTIAN,201 RALEIGH ST SE,399552.83,130491.48,CHURCHES,1,,
-76.989429628978485,38.927447144323281,292,FIRST CHURCH OF WASHINGTON DC,FIRSTCHURCHWASH.ORG,CHRISTIAN,1219 HAMLIN ST NE,400916.76,139951.35,CHURCHES,1,,
-76.940189357013523,38.902653534727882,293,DIVINE LOVE BAPTIST CHURCH,DIVINELOVEBC.ORG,CHRISTIAN,4303 SHERIFF RD NE,405188.21,137200.7,CHURCHES,1,,
-76.970634570168556,38.930761965194229,294,PENTECOSTAL CHURCH OF GOD,,CHRISTIAN,3115 SOUTH DAKOTA AVE NE,402546.37,140319.68,CHURCHES,1,,
-76.973405716475582,38.870575438696562,295,CHARITY BAPTIST CHURCH,,CHRISTIAN,1601 23RD ST SE,402308.04,133638.42,CHURCHES,1,,
-76.965162718178163,38.934651870702552,296,MOUNTAIN OF FIRE MIRACLES,MFMWASHINGTONDC.ORG,CHRISTIAN,3010 RHODE ISLAND AVE NE # C,403020.65,140751.66,CHURCHES,1,,
-76.96223507094318,38.92794463560395,297,MT HOREB BAPTIST CHURCH,MTHOREB.ORG,CHRISTIAN,2914 BLADENSBURG RD NE,403274.79,140007.2,CHURCHES,1,,
-76.961252017203307,38.873619672086214,298,APOSTOLIC FAITH CHURCH,APOSTOLICFAITHDC.ORG,CHRISTIAN,1325 BRANCH AVE SE,403362.59,133976.73,CHURCHES,1,,
-76.987379310325707,38.937489491140134,299,SERVANTS OF THE LORD,,CHRISTIAN,1326 QUINCY ST NE,401094.39,141066.16,CHURCHES,1,,
-76.99146560493439,38.929333020946856,300,GUIDING STAR BAPTIST CHURCH,GUIDINGSTARBAPTIST.ORG,CHRISTIAN,1025 JACKSON ST NE,400740.2,140160.68,CHURCHES,1,,
-76.991673889841408,38.934272200956528,301,GUILDFIELD BAPTIST CHURCH,MAPQUEST.COM,CHRISTIAN,1023 OTIS ST NE,400722.09,140708.97,CHURCHES,1,,
-76.934749241930604,38.880582894553505,302,FAITH BIBLE CHURCH,,CHRISTIAN,4625 G ST SE,405661.84,134751.01,CHURCHES,1,,
-76.960023576948672,38.882651526064031,303,FAITH SHEPARD BAPTIST CHURCH,,CHRISTIAN,3233 E ST SE,403468.75,134979.38,CHURCHES,1,,
-76.967847781043005,38.923665201205459,304,WHOLE TRUTH CHR-THE LORD JESUS,,CHRISTIAN,2800 DOUGLAS ST NE,402788.28,139531.96,CHURCHES,1,,
-76.978851563034866,38.946077394381135,305,UNION WESLEY AME ZION CHURCH,,CHRISTIAN,1860 MICHIGAN AVE NE,401833.51,142019.63,CHURCHES,1,,
-76.926866833482194,38.898084120017245,306,SARGENT MEMORIAL PRESBYTERIAN,SARGENT-MEMORIAL-PC.COM,CHRISTIAN,5109 NANNIE HELEN BURROUGHS AVENUE NE,406344.22,136694.3,CHURCHES,1,,
-76.936617498555961,38.904147579321098,307,MACEDONIA COMMUNITY CHURCH,,CHRISTIAN,1026 46TH ST NE,405497.92,137366.76,CHURCHES,1,,
-76.924963347170873,38.898742865790595,308,MACEDONIA HOLY CHURCH,,CHRISTIAN,707 DIVISION AVE NE,406509.28,136767.56,CHURCHES,1,,
-76.918190389099493,38.898768767462073,309,NEW MT OLIVE BAPTIST CHURCH,,CHRISTIAN,710 58TH ST NE,407096.8,136770.94,CHURCHES,1,,
-76.92227851658042,38.899764550794131,310,NEW ZION PENTECOSTAL CHURCH,,CHRISTIAN,5425 JAMES PL NE,406742.08,136881.17,CHURCHES,1,,
-76.94107011167678,38.892644876981194,311,NEW GROVE BAPTIST CHURCH,NEWGROVEBC.ORG,CHRISTIAN,4242 BENNING RD NE,405112.53,136089.61,CHURCHES,1,,
-76.945047620902926,38.899230311622155,312,NEW JERUSALEM TEMPLE,TEMPLENEWJERUSALEM.ORG,CHRISTIAN,4024 GAULT PL NE,404767.03,136820.43,CHURCHES,1,,
-76.964535394389245,38.875983348570387,313,NEW LIFE WORLD ASSEMBLIES,,CHRISTIAN,3001 M ST SE,403077.57,134239,CHURCHES,1,,
-76.942382796468735,38.870677488966479,314,NEW MACEDONIA BAPTIST CHURCH,TNMBC.ORG,CHRISTIAN,4115 ALABAMA AVE SE,405000.19,133650.99,CHURCHES,1,,
-76.928785495680387,38.903782373360009,315,NEW MORNING STAR BAPTIST CHR,NEWMORNINGSTARBAPTIST.ORG,CHRISTIAN,5016 SHERIFF RD NE,406177.29,137326.72,CHURCHES,1,,
-76.939913884166458,38.892178735189077,316,NEW MT CALVARY MSSNRY BAPT CHR,,CHRISTIAN,4270 BENNING RD NE,405212.87,136037.93,CHURCHES,1,,
-76.92687302827791,38.886417827089524,317,MENTROTONE BAPTIST CHURCH,METROTONE-BAPTIST-CHURCH.PLACESTARS.C,CHRISTIAN,5126 B ST SE,406344.72,135399.25,CHURCHES,1,,
-76.981161564878377,38.929530627912271,318,CONCORD BAPTIST CHURCH,,CHRISTIAN,3108 17TH ST NE,401633.64,140182.75,CHURCHES,1,,
-76.982204169068808,38.940989531420591,319,MICHIGAN PARK CHRISTIAN CHURCH,MICHIGANPARKCC.COM,CHRISTIAN,1600 TAYLOR ST NE,401542.99,141454.77,CHURCHES,1,,
-76.96954777407889,38.924070130160032,320,KEDUS GABRIEL ETHIOPIAN ORTHDX,,CHRISTIAN,2601 EVARTS ST NE,402640.85,139576.86,CHURCHES,1,,
-76.987676501132725,38.864344986689844,321,NEW COVENANT BAPTIST CHURCH,REFRESHINGSPRINGMINISTRIES.ORG,CHRISTIAN,1301 W ST SE,401069.72,132946.53,CHURCHES,1,,
-76.977842209537343,38.847666410637153,322,NEW IMAGE COMMUNITY BAPTIST,NEWIMAGECBC.ORG,CHRISTIAN,1839 ALABAMA AVE SE,401923.66,131095.25,CHURCHES,1,,
-76.989382942016803,38.943580377128292,323,JOSEPHITE PASTORAL CTR,JOSEPHITEPASTORALCENTER.ORG,CHRISTIAN,1200 VARNUM ST NE,400920.6,141742.28,CHURCHES,1,,
-76.960983443775461,38.870788961680752,324,SOUTHEAST CHRISTIAN FELLOWSHIP,SECF3140.ORG,CHRISTIAN,3140 Q ST SE,403386.03,133662.51,CHURCHES,1,,
-76.982449817389252,38.862904502829835,325,VICTORY DELIVERANCE TEMPLE,VICTORYDELIVERANCETEMPLE.COM,CHRISTIAN,2224 16TH ST SE,401523.36,132786.7,CHURCHES,1,,
-76.98787735664196,38.937506569529504,326,MONASTERY OF THE HOLY CROSS,,CHRISTIAN,1302 QUINCY ST NE,401051.21,141068.05,CHURCHES,1,,
-76.973529940179603,38.872436963837508,327,GALILEE BAPTIST CHURCH,,CHRISTIAN,2252 MINNESOTA AVE SE,402297.2,133845.06,CHURCHES,1,,
-76.979804054485797,38.932255955318467,328,PURITY PENTECOSTAL MINISTRY,,CHRISTIAN,3400 18TH ST NE,401751.28,140485.31,CHURCHES,1,,
-76.939919622911233,38.906717515531561,329,ZION BAPTIST CHURCH EASTLAND,,CHRISTIAN,1234 KENILWORTH AVE NE,405211.31,137651.85,CHURCHES,1,,
-76.921083965559447,38.897787224481803,330,RIGHTEOUS CHURCH OF GOD,RCGMINISTRIES.ORG,CHRISTIAN,616 56TH ST NE,406845.89,136661.76,CHURCHES,1,,
-76.913863581314374,38.894284083436808,331,PERFECTION OF THE SAINTS,,CHRISTIAN,6041 DIX ST NE,407472.6,136273.45,CHURCHES,1,,
-76.935979429154557,38.902546536455581,332,PILGRIM REST BAPTIST CHURCH,PILGRIMRESTBAPTISTDC.ORG,CHRISTIAN,4611 SHERIFF RD NE,405553.39,137189.07,CHURCHES,1,,
-76.938016510272774,38.903105072139148,333,FIRST BAPTIST CHR OF DEANWOOD,THEFIRSTBAPTISTCHURCHOFDEANWOOD.ORG,CHRISTIAN,1008 45TH ST NE,405376.65,137250.95,CHURCHES,1,,
-76.930585633740421,38.886809975277501,334,FIRST BAPTIST CHR-MARSHALL HTS,,CHRISTIAN,4934 B ST SE,406022.58,135442.53,CHURCHES,1,,
-76.956515337067657,38.885719159667538,335,FIRST BAPTIST CHURCH/SOUTHEAST,FBC-DC.ORG,CHRISTIAN,3440 MINNESOTA AVE SE,403772.98,135320.05,CHURCHES,1,,
-76.923825514539729,38.883214748861974,336,FIRST NATIONAL BAPTIST CHURCH,,CHRISTIAN,5400 D ST SE,406609.42,135043.9,CHURCHES,1,,
-76.939943271690353,38.879998783999064,337,FIRST ROCK BAPTIST CHURCH,FIRSTROCKBAPTISTCHURCH.ORG,CHRISTIAN,4630 ALABAMA AVE SE,405211.21,134685.86,CHURCHES,1,,
-76.993862800580089,38.844020292559208,338,GREATER FELLOWSHIP FULL GOSPEL,GREATERFELLOWSHIPDC.ORG,CHRISTIAN,814 ALABAMA AVE SE,400532.98,130690.29,CHURCHES,1,,
-76.962109299053878,38.928718679341181,339,DEBRE MEHERET ST MICHAEL'S,,CHRISTIAN,3010 EARL PL NE,403285.66,140093.13,CHURCHES,1,,
-76.988726978935446,38.937451433677111,340,POOR CLARES OF PERPETUAL ADRTN,,CHRISTIAN,3900 13TH ST NE,400977.55,141061.92,CONVENTS & MONASTERIES,1,,
-76.981647727353035,38.857641208740823,341,OUR LADY OF PERPETUAL HELP CATHOLIC CHURCH,OLPHSEDC.ORG,CHRISTIAN,1600 MORRIS RD SE,401593.09,132202.45,CHURCHES,1,,
-76.926791694660423,38.883907499068314,342,MIRACLE TEMPLENON,MIRACLETEMPLEMINISTRIES.ORG,CHRISTIAN,5219 CALL PL SE,406352,135120.59,CHURCHES,1,,
-77.004446910307621,38.841594123678142,343,ASSUMPTION RC CHURCH,ASSUMPTIONDC.ORG,CHRISTIAN,220 HIGHVIEW PL SE,399614.14,130420.96,CHURCHES,1,,
-76.942311960330841,38.89415863321215,344,WARD MEMORIAL AME CHURCH,WARDAMECDC.ORG,CHRISTIAN,241 42ND ST NE,405004.69,136257.58,CHURCHES,1,,
-76.927642914562185,38.903857341524464,345,LITTLE ROCK CHURCH OF CHRIST,,CHRISTIAN,5030 SHERIFF RD NE,406276.39,137335.12,CHURCHES,1,,
-76.959714052848327,38.868276625899867,346,RYLAND-EPWORTH UNITED MTHDST,,CHRISTIAN,3200 S ST SE,403496.31,133383.67,CHURCHES,1,,
-76.923946342929327,38.901990984112338,347,CONTEE AME ZION CHURCH,CONTEEAMEZ.ORG,CHRISTIAN,903 DIVISION AVE NE,406597.2,137128.2,CHURCHES,1,,
-76.994377286047367,38.941540706796509,348,RELIGIOUS THE SACRED HEART,,CHRISTIAN,821 VARNUM ST NE,400487.65,141515.82,CHURCHES,1,,
-76.920548623371886,38.901296790660624,349,CHURCH OF THE INCARNATION,INCARNATIONDC.ORG,CHRISTIAN,880 EASTERN AVE NE,406891.99,137051.39,CHURCHES,1,,
-76.920785236447358,38.895645552832406,350,CHURCH OF OUR LORD JESUS CHRIST,,CHRISTIAN,420 56TH ST NE,406872.01,136424.04,CHURCHES,1,,
-76.970285218631204,38.856892611880959,351,ALLEN CHAPEL AFRICAN MTHDST,ACAMEC.ORG,CHRISTIAN,2498 ALABAMA AVE SE,402579.33,132119.61,CHURCHES,1,,
-76.925779184635502,38.890542345373468,352,HUGHES MEMORIAL UNITED MTHDST,HUGHESMEMORIAL.ORG,CHRISTIAN,25 53RD ST NE,406439.25,135857.18,CHURCHES,1,,
-76.929024950948744,38.888833311001825,353,LEADING COMMANDMENT CHURCH,,CHRISTIAN,5023 CENTRAL AVE SE,406157.81,135667.24,CHURCHES,1,,
-76.977502377163731,38.928090722720505,354,INTERNATIONAL HOUSE OF PRAYER,,CHRISTIAN,1915 RHODE ISLAND AVE NE,401950.96,140022.98,CHURCHES,1,,
-76.98935494987083,38.92168766822833,355,ISRAEL BAPTIST CHURCH,ISRAELBAPTISTCHURCH.ORG,CHRISTIAN,1251 SARATOGA AVE NE,400923.31,139312,CHURCHES,1,,
-76.994288059942988,38.922141942848008,356,GREAT MT CALVARY HOLY CHURCH,GMCNATION.ORG,CHRISTIAN,610 RHODE ISLAND AVE NE,400495.52,139362.39,CHURCHES,1,,
-76.994588102297655,38.86304721840029,357,REVIVAL TEMPLE FULL GOSPEL CHR,REVIVALTEMPLECHURCH.ORG,CHRISTIAN,2431 SHANNON PL SE,400469.89,132802.41,CHURCHES,1,,
-76.971856958899679,38.856565905279318,358,EMMANUEL BAPTIST CHURCH,EMMANUELBAPTISTDC.ORG,CHRISTIAN,2409 AINGER PL SE,402442.92,132083.3,CHURCHES,1,,
-76.951031213043279,38.891247684172626,359,ST JUDAH BAPTIST CHURCH,,CHRISTIAN,43 ANACOSTIA RD NE,404248.46,135934,CHURCHES,1,,
-76.927385508246033,38.887177373430347,360,ST LUCILLE AME ZION CHURCH,MAPQUEST.COM,CHRISTIAN,5100 ASTOR PL SE,406300.19,135483.53,CHURCHES,1,,
-76.975860918829866,38.851443436224891,361,HIS CHURCH,,CHRISTIAN,2000 STANTON TER SE,402095.54,131514.57,CHURCHES,1,,
-76.93705402866965,38.887893565071984,362,GOSPEL ARK TEMPLE BIBLEWAY CHR,,CHRISTIAN,4551 BENNING RD SE,405461.3,135562.41,CHURCHES,1,,
-76.935460254110239,38.898897414032625,363,HIGHER PRAISE MINISTRIES,,CHRISTIAN,4625 GAULT PL NE,405598.71,136784.02,CHURCHES,1,,
-76.934749241930604,38.880582894553505,364,JONES MEMORIAL UNITED MTHDST,,CHRISTIAN,4625 G ST SE,405661.84,134751.01,CHURCHES,1,,
-76.937452359085356,38.899219825915651,365,HOLY TRINITY UNITED BAPTIST,HOLYTRINITYUNITEDBAPTISTCHURCH.COM,CHRISTIAN,4504 GAULT PL NE,405425.88,136819.69,CHURCHES,1,,
-76.91804448841485,38.896422706059134,366,HOLY TRUTH-GOD IN CHRIST JESUS,,CHRISTIAN,514 58TH ST NE,407109.69,136510.52,CHURCHES,1,,
-76.98883981520207,38.949043489667908,367,DEEPER LIFE BIBLE CHURCH,DEEPERLIFEDC.ORG,CHRISTIAN,4915 SARGENT RD NE,400967.61,142348.74,CHURCHES,1,,
-76.970543157076733,38.868672085783992,368,MT CALVARY HOLY EVANGELISTIC,MCHEC.ORG,CHRISTIAN,2504 NAYLOR RD SE,402556.52,133427.21,CHURCHES,1,,
-76.927347297650215,38.88938611481894,369,EPISCOPAL CHURCH OF THE ATONEMENT,ATONEMENTEPISCOPALCHURCH.ORG,CHRISTIAN,5073 E CAPITOL ST SE,406303.31,135728.72,CHURCHES,1,,
-76.921526430657451,38.893990404400689,370,EVERGREEN BAPTIST CHURCH,,CHRISTIAN,325 55TH ST NE,406807.87,136240.25,CHURCHES,1,,
-76.994984428333552,38.858675178956695,371,MATTHEWS MEMORIAL BAPTIST CHR,MMBCDC.ORG,CHRISTIAN,2616 MARTIN LUTHER KING JR AVE,400435.52,132317.08,CHURCHES,1,,
-76.958621265316722,38.862607067858242,372,EAST WASHINGTON HEIGHTS BAPTIST CHURCH,EWHBC.ORG,CHRISTIAN,2220 BRANCH AVE SE,403591.43,132754.35,CHURCHES,1,,
-76.994695868822603,38.859491419510334,373,CAMPBELL A M E CHURCH,CAMPBELLAME.ORG,CHRISTIAN,2562 MARTIN LUTHER KING JR AVE,400460.56,132407.69,CHURCHES,1,,
-76.957737524374224,38.884776520470574,374,MT ENON MISSIONARY BAPTIST,,CHRISTIAN,329 34TH ST SE,403666.99,135215.36,CHURCHES,1,,
-76.95597165616644,38.864059246872323,375,CHRISTIAN PRAISE CHURCH,,CHRISTIAN,3628 ALABAMA AVE SE,403821.31,132915.66,CHURCHES,1,,
-76.982974934085263,38.866560105551983,376,CHURCH IN THE LORD JESUS,,CHRISTIAN,1524 GOOD HOPE RD SE,401477.71,133192.49,CHURCHES,1,,
-76.953703096929189,38.866948989826611,377,CHURCH OF JESUS CHRIST,COJC.ORG,CHRISTIAN,3456 PENNSYLVANIA AVE SE,404018.03,133236.54,CHURCHES,1,,
-76.926497891937785,38.884257921031171,378,ST JOHN BAPTIST CHURCH,,CHRISTIAN,5228 CALL PL SE,406377.46,135159.51,CHURCHES,1,,
-76.993253177286832,38.861403112396481,379,BETHLEHEM BAPTIST CHURCH,BETHLEHEMBAPTISTDC.ORG,CHRISTIAN,2458 MARTIN LUTHER KING JR AVE,400585.76,132619.91,CHURCHES,1,,
-76.992421299943572,38.862410833300984,380,BETHUEL TEMPLE CHURCH,BETHUELTEMPLE.COM,CHRISTIAN,2406 MARTIN LUTHER KING JR AVE,400657.95,132731.78,CHURCHES,1,,
-76.940084403982951,38.902155138567771,381,SOUL SAVING CTR OF CHRIST,SSCOCINC.ORG,CHRISTIAN,909 43RD PL NE,405197.35,137145.38,CHURCHES,1,,
-76.97331032985872,38.858176142524869,382,INDEPENDENT CHURCH OF GOD,,CHRISTIAN,2302 AINGER PL SE,402316.72,132262.01,CHURCHES,1,,
-76.942134102944053,38.883631712902449,383,GREATER DELIVERANCE CHR OF GOD,GREATERDELIVERANCECOGIC.ORG,CHRISTIAN,441 CHAPLIN ST SE,405020.86,135089.02,CHURCHES,1,,
-76.930700762489522,38.889319238346893,384,ST LUKE PARISH,STLUKECHURCHSSJ.ORG,CHRISTIAN,4925 E CAPITOL ST SE,406012.38,135721.07,CHURCHES,1,,
-76.919121530163949,38.893053064286448,385,ST MICHAELS CHR-GOD-CHRIST,,CHRISTIAN,313 57TH ST NE,407016.59,136136.38,CHURCHES,1,,
-76.932569590596216,38.903179257028995,386,ST ROSE PENTECOSTAL CHURCH,STROSEUHCA.COM,CHRISTIAN,4816 SHERIFF RD NE,405849.11,137259.52,CHURCHES,1,,
-76.932577093129126,38.905853301586177,387,TEMPLE OF THE LIVING EPOSTLE,,CHRISTIAN,4821 MEADE ST NE,405848.24,137556.36,CHURCHES,1,,
-77.072652192204572,38.959331862958877,388,WESLEY UNITED METHODIST CHURCH,WESLEYDC.ORG,CHRISTIAN,5312 CONNECTICUT AVE NW,393703.31,143493.29,CHURCHES,1,,
-76.997445787894947,38.961308299518407,389,BETHLEHEM CHURCH-GOD HOLINESS,,CHRISTIAN,5898 EASTERN AVE NE,400221.57,143710.19,CHURCHES,1,,
-77.034415769294029,38.977368201040605,390,OUR LADY OF LEBANON,MARONITESEMINARY.ORG,CHRISTIAN,7164 ALASKA AVE NW,397018.08,145493.55,CHURCHES,1,,
-77.011434200973682,38.967484995889102,391,OVERCOMING FAITH MINISTRIES,,CHRISTIAN,6401 CHILLUM PL NW,399009.29,144395.92,CHURCHES,1,,
-77.035796822263734,38.983522384098812,392,TIFERETH ISRAEL CONGREGATION,TIFERETH-ISRAEL.ORG,JEWISH,7701 16TH ST NW,396898.68,146176.77,SYNAGOGUES,1,,
-77.062910648363342,38.960561642984622,393,TEMPLE SINAI,TEMPLESINAIDC.ORG,CHRISTIAN,3100 MILITARY RD NW,394547.72,143629.18,CHURCHES,1,,
-77.036895227605456,38.941139014083632,394,NORTHWEST COMMUNITY CHURCH,,CHRISTIAN,4100 16TH ST NW,396801.61,141471.86,CHURCHES,1,,
-77.027180358450735,38.964764247012432,395,BROTHERHOOD OF THE CROSS-STAR,OOO-BCSUSA.ORG/WASHINGTON-DC-BETHEL,CHRISTIAN,916 RITTENHOUSE ST NW,397644.61,144094.18,CHURCHES,1,,
-77.036903643590804,38.948483647140456,396,CAPITAL SPANISH SEVENTH-DAY,CAPITALSPANISHDC.ADVENTISTCHURCH.ORG,CHRISTIAN,4800 16TH ST NW,396801.21,142287.18,CHURCHES,1,,
-77.032468274418591,38.93836676382314,397,CAPITAL WESLEYAN CHURCH,WESLEYAN.ORG,CHRISTIAN,3831 14TH ST NW,397185.29,141163.97,CHURCHES,1,,
-77.008726887747031,38.955181933177755,398,PLYMOUTH CONGREGATIONAL CHURCH,PLYMOUTH-UCC.ORG,CHRISTIAN,5301 N CAPITOL ST NE,399243.78,143030.14,CHURCHES,1,,
-77.022995247995922,38.943918029189568,399,MOORISH SCIENCE TEMPLE-AMER,,ISLAMIC,732 WEBSTER ST NW,398006.73,141779.96,MOSQUES,1,,
-77.006359257588471,38.961842794306548,400,MT CALVARY HOLY CHURCH,MTCALVARYHOLY.ORG,CHRISTIAN,5900 CHILLUM PL NE,399449.05,143769.54,CHURCHES,1,,
-77.033140328888535,38.952143576087359,401,MT ZION BAPTIST CHURCH,,CHRISTIAN,5101 14TH ST NW,397127.58,142693.34,CHURCHES,1,,
-77.035760062822746,38.945467489201249,402,SIMPSON-HAMLINE UNITED MTHDST,,CHRISTIAN,4501 16TH ST NW,396900.21,141952.32,CHURCHES,1,,
-77.036751645744047,38.943205110752494,403,OROMO EVANGELICAL LUTHERAN CHR,,CHRISTIAN,4300 16TH ST NW,396814.15,141701.21,CHURCHES,1,,
-77.035793279252431,38.955334334004547,404,BUDDHIST CONGREGATIONAL CHURCH,www.GIACHOANGTEMPLE.COM,CHRISTIAN,5401 16TH ST NW,396897.76,143047.63,CHURCHES,1,,
-77.013941046204238,38.942576864542744,405,VICTORY CHURCH OF JESUS CHRIST,VICTORYONTHEHILL.COM,CHRISTIAN,4210 2ND ST NW,398791.62,141630.92,CHURCHES,1,,
-77.011196269857393,38.966050455659136,406,OMEGA GOSPEL MISSION,OMEGAGOSPELMISSION.COM,CHRISTIAN,6200 KANSAS AVE NE,399029.89,144236.67,CHURCHES,1,,
-77.030133437592568,38.947268659799256,407,PEOPLES CONGREGATIONAL UCC,,CHRISTIAN,4704 13TH ST NW,397388.04,142152.09,CHURCHES,1,,
-77.009894240099953,38.97033056996132,408,VAN BUREN UNITED METHODIST CHR,VANBURENCHURCH.ORG,CHRISTIAN,35 VAN BUREN ST NW,399142.78,144711.79,CHURCHES,1,,
-77.010978825641615,38.965714738874112,409,CELESTIAL CHURCH OF CHRIST,CCCUSADIOCESE.ORG,CHRISTIAN,6200 CHILLUM PL NW,399048.73,144199.4,CHURCHES,1,,
-77.036888060033675,38.947572824830701,410,WASHINGTON SEVENTH DAY BAPT,WASHINGTONSDB.COM,CHRISTIAN,4700 16TH ST NW,396802.52,142186.07,CHURCHES,1,,
-77.076808472723343,38.930015694926901,411,CHURCH OF THE ANNUNCIATION,<Null>,CHRISTIAN,3125 39TH ST NW,393340.34,140239.23,CHURCHES,1,,
-77.030028493206473,38.953916163643399,412,GREATER NEW ST PAUL BAPTIST,,CHRISTIAN,1300 INGRAHAM ST NW,397397.38,142890.02,CHURCHES,1,,
-77.007747892056372,38.959833869182916,413,GREATER ST PAUL BAPTIST CHURCH,GREATERSTPAULDC.COM,CHRISTIAN,5720 SOUTH DAKOTA AVE NE,399328.68,143546.54,CHURCHES,1,,
-77.016406724042426,38.956344885475367,414,CALVARY LIFE CTR,,CHRISTIAN,304 KENNEDY ST NW,398578.14,143159.33,CHURCHES,1,,
-77.081698267862464,38.95498823107193,415,ST MARY ARMENIAN APOSTOLIC CHR,STMARYAAC.ORG,CHRISTIAN,4125 FESSENDEN ST NW,392918.84,143011.77,CHURCHES,1,,
-77.080990956023811,38.942117509364437,416,NATIONAL PRESBYTERIAN CHURCH,NATIONALPRES.ORG,CHRISTIAN,4101 NEBRASKA AVE NW,392978.88,141582.95,CHURCHES,1,,
-77.091307127703331,38.942348716191134,417,NORTHWEST BAPTIST CHURCH,NWBCDC.COM,CHRISTIAN,4605 MASSACHUSETTS AVE NW,392084.57,141609.46,CHURCHES,1,,
-77.009935606057624,38.964927331050781,418,BETHEL CAPITOL CHURCH,BETHELCAPITOLCHURCH.ORG,CHRISTIAN,6130 N CAPITOL ST NW,399139.13,144111.98,CHURCHES,1,,
-77.035885968641466,38.98773504747804,419,FIRST UNITED CHR-CHRIST APSTLC,<Null>,CHRISTIAN,7901 16TH ST NW,396891.14,146644.42,CHURCHES,1,,
-77.081152287571712,38.948970091867302,420,CITIZEN HEIGHTS CHURCH,CITIZENHEIGHTS.COM,CHRISTIAN,4100 RIVER RD NW,392965.57,142343.66,CHURCHES,1,,
-77.000675847188234,38.933362116183268,421,BASILICA-THE NATIONAL SHRINE,NATIONALSHRINE.COM,CHRISTIAN,400 MICHIGAN AVE NE,399941.6,140607.91,CHURCHES,1,,
-77.077805996911579,38.943571989582274,422,RESTORATION CHURCH,RESTORATIONCHURCHDC.COM,CHRISTIAN,3950 CHESAPEAKE ST NW,393255.13,141744.17,CHURCHES,1,,
-77.036891254799528,38.957089343400845,423,FOURTH CHURCH CHRIST SCIENTIST,CHRISTIANSCIENCEDC.ORG,CHRISTIAN,5510 16TH ST NW,396802.67,143242.49,CHURCHES,1,,
-77.010843537355896,38.956265990905976,424,FROM THE HEART CHR MINISTRIES,,CHRISTIAN,24 KENNEDY ST NW,399060.33,143150.5,CHURCHES,1,,
-77.030359510929003,38.987015505366159,425,ST MARY'S BAPTIST CHURCH,STMARYSBAPTIST.ORG,CHRISTIAN,8008 EASTERN AVE NW,397369.91,146564.37,CHURCHES,1,,
-77.018246785226253,38.970220204782933,426,PROMISED LAND BAPTIST CHURCH,THEPLBC.ORG,CHRISTIAN,401 VAN BUREN ST NW,398418.96,144699.65,CHURCHES,1,,
-77.066684379753781,38.93232200214905,427,CLEVELAND PARK CONGREGATIONAL,CPCCHURCH.ORG,CHRISTIAN,3400 LOWELL ST NW,394218.36,140494.56,CHURCHES,1,,
-77.017074830706889,38.95289525364857,428,GETHSEMANE BAPTIST CHURCH,GETHSEMANEBAPTISTCHURCH.ORG,CHRISTIAN,5119 4TH ST NW,398520.16,142776.4,CHURCHES,1,,
-77.035994513540047,38.944421014774889,429,ERITREAN EVANGELICAL CHURCH,ERITREANCHURCHDC.COM,CHRISTIAN,4401 16TH ST NW,396879.84,141836.16,CHURCHES,1,,
-77.010843537355896,38.956265990905976,430,EVANGELICAL CHURCH LA PENA,,CHRISTIAN,24 KENNEDY ST NW,399060.33,143150.5,CHURCHES,1,,
-77.033735074517423,38.960012126416174,431,EVANGLICAL CHURCH APOSTLES,,CHRISTIAN,1409 MANCHESTER LN NW,397076.35,143566.84,CHURCHES,1,,
-77.078182511974603,38.966295281524758,432,CHEVY CHASE BAPTIST CHURCH,CHEVYCHASEBAPTIST.ORG,CHRISTIAN,5671 WESTERN AVE NW,393224.65,144266.69,CHURCHES,1,,
-77.01624065102547,38.974853076172906,433,SEEKERS CHURCH,SEEKERSCHURCH.ORG,CHRISTIAN,276 CARROLL ST NW,398592.9,145213.91,CHURCHES,1,,
-77.091307127703331,38.942348716191134,434,ARABIC BAPTIST CHURCH,ABCDC.ORG,CHRISTIAN,4605 MASSACHUSETTS AVE NW,392084.57,141609.46,CHURCHES,1,,
-77.021164526149576,38.939019576143018,435,ISRAEL METROPOLITAN CHRISTIAN,ISRAELCME.ORG,CHRISTIAN,557 RANDOLPH ST NW,398165.31,141236.15,CHURCHES,1,,
-77.035981133858996,38.952193993320506,436,CHRIST LUTHERAN CHURCH,CHRISTLUTHERANDC.ORG,CHRISTIAN,5101 16TH ST NW,396881.34,142699.03,CHURCHES,1,,
-77.03593913342219,38.948519079939274,437,CHURCH OF CHRIST,COC16TH.ORG,CHRISTIAN,4801 16TH ST NW,396884.82,142291.08,CHURCHES,1,,
-77.029053494709203,38.963222304510211,438,CHURCH OF THE NATIVITY,NATIVITYCHURCH.NET,CHRISTIAN,6001 13TH ST NW,397482.22,143923.06,CHURCHES,1,,
-77.012223506445977,38.956898865511448,439,CHRIST UNIVERSAL CHURCH,CHRISTUNIVERSALCHURCH.ORG,CHRISTIAN,111 KENNEDY ST NW,398940.73,143220.77,CHURCHES,1,,
-77.028229275492677,38.96285596057762,440,CHURCH-THE NATIVITY-OUR LORD,,CHRISTIAN,6000 GEORGIA AVE NW,397553.64,143882.37,CHURCHES,1,,
-77.077633085788079,38.946857697352776,441,WISCONSIN AVENUE BAPTIST CHR,,CHRISTIAN,3920 ALTON PL NW,393270.43,142108.9,CHURCHES,1,,
-77.011989213479765,38.956400822827845,442,FAITH MISSION TEMPLE,FAITHMISSIONTEMPLE.ORG,CHRISTIAN,102 KENNEDY ST NW,398961.03,143165.48,CHURCHES,1,,
-77.00063305434864,38.958895823974039,443,FAITH MORAVIAN CHR-THE NATIONS,FAITHMORAVIANCHURCH.ORG,CHRISTIAN,405 RIGGS RD NE,399945.33,143442.38,CHURCHES,1,,
-77.033066981343808,38.952695713880985,444,JEHOVAH'S WITNESS NORTH UNIT,,CHRISTIAN,5113 14TH ST NW,397133.96,142754.63,CHURCHES,1,,
-77.035994513540047,38.944421014774889,445,JEMBOLLA SISAY,,CHRISTIAN,4401 16TH ST NW,396879.84,141836.16,CHURCHES,1,,
-77.012750300150103,38.956232287733592,446,FAITH FULL GOSPEL DELIVERANCE CHURCH OF GOD,,CHRISTIAN,125 MISSOURI AVE NW,398895.06,143146.78,CHURCHES,1,,
-77.029240064592187,38.986266757868492,447,INTERNATIONAL ETHIOPIAN,EECDC.ORG,CHRISTIAN,7930 EASTERN AVE NW,397466.87,146481.22,CHURCHES,1,,
-77.075745222556591,38.967236536258568,448,CHEVY CHASE PRESBYTERIAN CHR,CHEVYCHASEPC.ORG,CHRISTIAN,1 CHEVY CHASE CIR NW,393435.96,144371,CHURCHES,1,,
-77.031828124869833,38.978175080168945,449,NATI SPIRITUAL,NSSDC.ORG,CHRISTIAN,1325 FERN ST NW,397242.33,145583.04,CHURCHES,1,,
-77.036934907571478,38.984107924605489,450,OHEV SHOLOM - THE NATIONAL SYNAGOGUE,OSTNS.ORG,JEWISH,1600 JONQUIL ST NW,396800.1,146241.81,SYNAGOGUES,1,,
-77.077633085788079,38.946857697352776,451,AGAPE BAPTIST CHURCH,AGAPECHURCHDC.COM,CHRISTIAN,3920 ALTON PL NW,393270.43,142108.9,CHURCHES,1,,
-77.084697592853615,38.940350157302106,452,TEMPLE BAPTIST CHURCH,TEMPLE-BAPTIST.COM,CHRISTIAN,3850 NEBRASKA AVE NW,392657.36,141387.05,CHURCHES,1,,
-77.027326048372629,38.953516859373259,453,NEW HOPE CME CHURCH,NEWHOPECMEC.COM,CHRISTIAN,5219 GEORGIA AVE NW,397631.61,142845.62,CHURCHES,1,,
-77.028610572972269,38.95900654945607,454,NEW REDEEMER BAPTIST CHURCH,,CHRISTIAN,5714 GEORGIA AVE NW,397520.46,143455.06,CHURCHES,1,,
-77.036843861740692,38.946872625027353,455,NINETEENTH STREET BAPTIST CHR,EVERYBLESSING.ORG,CHRISTIAN,4606 16TH ST NW,396806.32,142108.34,CHURCHES,1,,
-77.011196269857393,38.966050455659136,456,IGLESIA DE JESUCRISTO PALABRA,MIELVISION.ORG,CHRISTIAN,6210 CHILLUM PL NW,399029.89,144236.67,CHURCHES,1,,
-77.020196602931222,38.943683069642994,457,ST GABRIEL CATHOLIC CHURCH,SGDC.ORG,CHRISTIAN,26 GRANT CIR NW,398249.34,141753.82,CHURCHES,1,,
-77.03595440402944,38.943801527211782,458,ST GEORGE ANTIOCHIAN ORTHODOX,SAINTGEORGE.ORG,CHRISTIAN,4335 16TH ST NW,396883.29,141767.39,CHURCHES,1,,
-77.027676301512685,38.949936979142031,459,ST JOSEPH BAPTIST CHURCH,,CHRISTIAN,1203 EMERSON ST NW,397601.13,142448.23,CHURCHES,1,,
-77.034160954147524,38.952101213664747,460,ST LUKE BAPTIST CHURCH,,CHRISTIAN,1415 GALLATIN ST NW,397039.11,142688.67,CHURCHES,1,,
-77.026657188849327,38.968449190944334,461,NEW BETHEL CHR-GOD IN CHRIST,,CHRISTIAN,6440 PINEY BRANCH RD NW,397690.07,144503.23,CHURCHES,1,,
-77.028793256693945,38.985668092874036,462,SHEPHERD PARK CHRISTIAN CHURCH,SHEPHERDPARKCHRISTIANCHURCH.ORG,CHRISTIAN,7900 EASTERN AVE NW,397505.56,146414.75,CHURCHES,1,,
-77.031649079209046,38.957543365126412,463,FELLOWSHIP BAPTIST CHURCH,FELLOWSHIPBAPTISTCHURCH.ORG,CHRISTIAN,5605 COLORADO AVE NW,397257.05,143292.72,CHURCHES,1,,
-77.02229334901007,38.938461662676154,464,FIRST BAPTIST CHURCH,1FBC.ORG,CHRISTIAN,712 RANDOLPH ST NW,398067.43,141174.24,CHURCHES,1,,
-77.023604947430542,38.939567533751784,465,FIRST CHURCH 7TH DAY ADVENTIST,FIRSTSDACHURCH.ORG,CHRISTIAN,810 SHEPHERD ST NW,397953.75,141297.03,CHURCHES,1,,
-77.036751645744047,38.943205110752494,466,GRACE LUTHERAN CHURCH,,CHRISTIAN,4300 16TH ST NW,396814.15,141701.21,CHURCHES,1,,
-77.025805465721845,38.944205077151992,467,FIRST MYSTERY CHURCH OF GOD,,CHRISTIAN,909 WEBSTER ST NW,397763.12,141811.89,CHURCHES,1,,
-77.018214358417936,38.879027465600977,468,WESTMINSTER PRESBYTERIAN CHR,WESTMINSTERDC.ORG,CHRISTIAN,400 I ST SW,398419.75,134576.48,CHURCHES,1,,
-77.009742754076441,38.834672605794033,469,RIGHTEOUS BRANCH COMMANDMENT,,CHRISTIAN,141 XENIA ST SW,399154.3,129652.66,CHURCHES,1,,
-76.992889813101144,38.843662782204937,470,COMMUNITY OF HOPE CHURCH OF THE NAZARENE,COMMOFHOPENAZ.ORG,CHRISTIAN,905 ALABAMA AVE SE,400617.45,130650.61,CHURCHES,1,,
-76.960089978507568,38.893339541592375,471,VARICK MEMORIAL AME ZION CHR,VARICKAMEZ.ORG,CHRISTIAN,255 ANACOSTIA AVE NE,403462.47,136165.83,CHURCHES,1,,
-76.93038041739598,38.90670870765021,472,VICTORY MEMORIAL BAPTIST CHR,,CHRISTIAN,1215 49TH PL NE,406038.7,137651.46,CHURCHES,1,,
-77.000701258041317,38.843568948319565,473,MORNING STAR BAPTIST CHURCH,MORNINGSTARCHURCH-DC.ORG,CHRISTIAN,3204 BROTHERS PL SE,399939.32,130640.17,CHURCHES,1,,
-77.016729009609122,38.878892381761176,474,CHRIST UNITED METHODIST CHURCH,CUMCDC.ORG,CHRISTIAN,900 4TH ST SW,398548.63,134561.46,CHURCHES,1,,
-77.012500226175163,38.878926602406203,475,FRIENDSHIP BAPTIST CHURCH,FRIENDSHIPBAPTISTDC.ORG,CHRISTIAN,900 DELAWARE AVE SW,398915.56,134565.2,CHURCHES,1,,
-77.036889583244715,38.985289996819603,476,FABRANGEN,FABRANGEN.ORG,JEWISH,7750 16TH ST NW,396804.08,146373.03,SYNAGOGUES,1,,
-77.075137330126509,38.968427188205851,477,SHRINE-THE MOST BLESSED SCRMNT,BLESSEDSACRAMENTDC.ORG,CHRISTIAN,3630 QUESADA ST NW,393488.75,144503.13,CHURCHES,1,,
-77.08780164773404,38.934967028073004,478,METROPOLITAN MEMORIAL UNITED METHODIST CHURCH,NATIONALCHURCH.ORG,CHRISTIAN,3401 NEBRASKA AVE NW,392387.68,140789.73,CHURCHES,1,,
-77.024732655885444,38.941146994868397,479,CENTRO EVANGELISTICO,CENTROEVANGELISTICODC.ORG,CHRISTIAN,4101 9TH ST NW,397856.03,141472.39,CHURCHES,1,,
-77.03487186702425,38.953805458844997,480,FIRST SUPERET BRANCH CHURCH,SUPERETLIGHTCHURCH.COM,CHRISTIAN,1420 INGRAHAM ST NW,396977.56,142877.88,CHURCHES,1,,
-77.022760729753827,38.961602573380993,481,HOLY COMFORTER EPISCOPAL CHR,HOLYCOMFORTERDC.ORG,CHRISTIAN,701 OGLETHORPE ST NW,398027.55,143743.1,CHURCHES,1,,
-77.026853583393702,38.982524777256671,482,NEW DIMENSIONS KINGDOM MNSTRS,,CHRISTIAN,7612 GEORGIA AVE NW # 14,397673.51,146065.76,CHURCHES,1,,
-77.022592287721935,38.972569064733932,483,TAKOMA PARK BAPTIST CHURCH,TAKOMAPARKBAPTISTCHURCH.ORG,CHRISTIAN,635 ASPEN ST NW,398042.45,144960.48,CHURCHES,1,,
-77.004487647207938,38.961854591883281,484,WASHINGTON DC CHRISTIAN,,CHRISTIAN,207 ONEIDA ST NE,399611.26,143770.84,CHURCHES,1,,
-77.0048928669123,38.961827190525518,485,WASHINGTON DC CHRISTIAN RFRMD,,CHRISTIAN,5911 NEW HAMPSHIRE AVE NE,399576.14,143767.8,CHURCHES,1,,
-77.020075899051349,38.942703889503449,486,PETWORTH UNITED METHODIST CHR,UMC.ORG,CHRISTIAN,32 GRANT CIR NW,398259.78,141645.12,CHURCHES,1,,
-77.035924292260546,38.955923884894084,487,SIXTH PRESBYTERIAN CHURCH,,CHRISTIAN,5413 16TH ST NW,396886.43,143113.08,CHURCHES,1,,
-77.019624609375853,38.955979104410019,488,ARK FOUNDATION CHURCH,<Null>,CHRISTIAN,5421 5TH ST NW,398299.22,143118.78,CHURCHES,1,,
-77.033754066789513,38.955044243755253,489,STAR-BETHLEHEM CHR-GOD,,CHRISTIAN,5331 COLORADO AVE NW,397074.5,143015.36,CHURCHES,1,,
-77.025354458239107,38.951733125265591,490,MIRACLE TEMPLE OF GOD & CHRIST,,CHRISTIAN,822 GALLATIN ST NW,397802.45,142647.56,CHURCHES,1,,
-77.03780504084331,38.940164116116023,491,RUSSIAN ORTHODOX CHURCH,STJOHNDC.ORG,CHRISTIAN,4001 17TH ST NW,396722.69,141363.67,CHURCHES,1,,
-77.028127613046806,38.964586019940029,492,EMORY UNITED METHODIST CHURCH,EMORYFELLOWSHIP.ORG,CHRISTIAN,6120 GEORGIA AVE NW,397562.51,144074.42,CHURCHES,1,,
-77.018452411742203,38.941223284230219,493,DEBRE HAIL KEDUS GABRIEL,KEDUSGABRIEL.ORG,CHRISTIAN,4100 ILLINOIS AVE NW,398400.49,141480.73,CHURCHES,1,,
-77.019523162913856,38.976071117601556,494,CENTER FOR SPIRITUAL LIVING DC,CSLDC.ORG,CHRISTIAN,400 E ST SW,398308.49,145349.18,CHURCHES,1,,
-77.070882373217572,38.930523814815508,495,WASHINGTON NATIONAL CATHEDRAL,NATIONALCATHEDRAL.ORG,CHRISTIAN,3101 WISCONSIN AVE NW,393854.22,140295.22,CHURCHES,1,,
-77.022216420641016,38.949585109934176,496,SHAMMAH MINISTRIES INC,,CHRISTIAN,4836 7TH ST NW,398074.4,142409.04,CHURCHES,1,,
-77.05045427935724,38.89918495503774,497,ST MARY'S EPISCOPAL CHURCH,STMARYSFOGGYBOTTOM.ORG,CHRISTIAN,728 23RD ST NW,395623.55,136815.17,CHURCHES,1,,
-77.052667641862982,38.902272404458998,498,ST PAUL'S EPISCOPAL CHURCH,STPAULS-KST.COM,CHRISTIAN,2430 K ST NW OFC,395431.75,137158.01,CHURCHES,1,,
-77.053044128168466,38.90315334155995,499,ST STEPHEN MARTYR CHURCH,STSTEPHENMARTYRDC.ORG,CHRISTIAN,2436 PENNSYLVANIA AVE NW,395399.15,137255.82,CHURCHES,1,,
-77.046284217026738,38.905912681597002,500,ST JAMES II ASSOC LLC,STGREGORYHOTELWDC.COM,CHRISTIAN,2033 M ST NW,395985.66,137561.81,CHURCHES,1,,
-77.0402742254022,38.90639199028994,501,CATHEDRAL OF ST MATTHEW THE APOSTLE,STMATTHEWSCATHEDRAL.ORG,CHRISTIAN,1725 RHODE ISLAND AVE NW,396506.97,137614.77,CHURCHES,1,,
-77.041043467848979,38.91022000010156,502,ST THOMAS EPISCOPAL CHURCH,STTHOMASDC.ORG,CHRISTIAN,1772 CHURCH ST NW,396440.44,138039.74,CHURCHES,1,,
-77.049322329995292,38.910343005392136,503,CHURCH OF THE PILGRAMS,CHURCHOFTHEPILGRIMS.COM,CHRISTIAN,2201 P ST NW,395722.41,138053.75,CHURCHES,1,,
-77.02098366978916,38.924536501809214,504,ANDREW RANKIN MEMORIAL CHAPEL,CHAPEL.HOWARD.EDU,CHRISTIAN,2455 6TH ST NW,398180.62,139628.4,CHURCHES,1,,
-76.991277102330955,38.843023163184462,505,ANACOSTIA GOSPEL CHAPEL,,CHRISTIAN,1100 SAVANNAH ST SE,400757.46,130579.62,CHURCHES,1,,
-77.020907022491556,38.882988274197885,506,ST DOMINICS CHURCH,STDOMINICCHURCH.ORG,CHRISTIAN,630 E ST SW,398186.21,135016.21,CHURCHES,1,,
-77.0147300251963,38.876050862405265,507,ST MATTHEW'S LUTHERAN CHURCH,,CHRISTIAN,222 M ST SW,398722.03,134246,CHURCHES,1,,
-76.999957366173561,38.825099264650952,508,ST THOMAS MORE CHURCH,STTHOMASMOREDC.ORG,CHRISTIAN,4275 4TH ST SE,400003.9,128589.91,CHURCHES,1,,
-77.006400977874947,38.838013353159383,509,UNITY OF LOVE PRAISE TEMPLE,,CHRISTIAN,3703 MARTIN LUTHER KING JR AVE,399444.47,130023.48,CHURCHES,1,,
-77.004697983811354,38.83930434563181,510,TABERNACLE CHURCH,,CHRISTIAN,3600 MARTIN LUTHER KING JR AVE,399592.33,130166.78,CHURCHES,1,,
-76.999379326126075,38.843797222841189,511,TEMPLE MISSIONARY BAPTIST CHR,TEMPLEMISSIONARY.COM,CHRISTIAN,3105 MARTIN LUTHER KING JR AVE,400054.08,130665.51,CHURCHES,1,,
-76.99627078008379,38.826077435195927,512,TEMPLE OF PRAISE,THETEMPLEOFPRAISE.ORG,CHRISTIAN,700 SOUTHERN AVE SE,400324.02,128698.5,CHURCHES,1,,
-77.021534345370938,38.880291498750623,513,HOUSE OF THE LORD CHURCH,<Null>,CHRISTIAN,700 7TH ST SW,398131.71,134716.86,CHURCHES,1,,
-77.006105661982588,38.830056375762567,514,SOUTHEAST BAPTIST TABERNACLE,,CHRISTIAN,4101 1ST ST SE,399470.05,129140.2,CHURCHES,1,,
-76.99974217914415,38.843587597643335,515,SOUTHEAST MINISTRY,SEMINISTRYDC.ORG,CHRISTIAN,3111 MARTIN LUTHER KING JR AVE,400022.58,130642.24,CHURCHES,1,,
-77.04613722275262,38.91090696774576,516,CHURCH OF THE SAVIOR,<Null>,CHRISTIAN,2025 MASSACHUSETTS AVE NW,395998.69,138116.21,CHURCHES,1,,
-77.02285201420392,38.877817273158037,517,RIVERSIDE BAPTIST CHURCH,RIVERSIDEDC.ORG,CHRISTIAN,699 MAINE AVE SW,398017.31,134442.23,CHURCHES,1,,
-77.008361647244854,38.829536807697416,518,FAITH PRESBYTERIAN CHURCH,,CHRISTIAN,4161 S CAPITOL ST SW,399274.16,129082.54,CHURCHES,1,,
-77.014132822137213,38.877151492124796,519,SECOND UNION BAPTIST CHURCH,SECONDUNIONBAPTISTCHURCH.ORG,CHRISTIAN,1107 DELAWARE AVE SW,398773.87,134368.17,CHURCHES,1,,
-77.006961623338327,38.836218746467729,520,CHURCH IN THE FIELD,THECHURCHINTHEFIELD.COM,CHRISTIAN,3754 MLK JR AVE SE # 101,399395.78,129824.27,CHURCHES,1,,
-77.008663586245135,38.834018136177924,521,COVENANT BAPTIST CHURCH,COVENANTDC.ORG,CHRISTIAN,3845 S CAPITOL ST SW,399247.99,129580,CHURCHES,1,,
-76.99704420264105,38.843013181948962,522,REHOBOTH BAPTIST CHURCH,RBCDC.ORG,CHRISTIAN,621 ALABAMA AVE SE,400256.8,130578.48,CHURCHES,1,,
-77.006105661982588,38.830056375762567,523,REMNANT COMMUNITY CHURCH,REMNANTCOMMUNITYCHURCH.ORG,CHRISTIAN,4101 1ST ST SE,399470.05,129140.2,CHURCHES,1,,
-77.004665459339734,38.840414638691847,524,RESURRECTION BAPTIST CHURCH,RESURRECTIONBC.COM,CHRISTIAN,3501 MARTIN LUTHER KING JR AVE,399595.16,130290.03,CHURCHES,1,,
-76.990522364902262,38.890853627794677,525,SEVENTH WAVE,,CHRISTIAN,114 12TH ST NE,400822.43,135889.16,CHURCHES,1,,
-77.000800289611831,38.881671134817836,526,MT JOY CHURCH,,CHRISTIAN,541 4TH ST SE,399930.76,134869.79,CHURCHES,1,,
-76.973791854229987,38.916425881533939,527,SEAN BETHEL,MISTERBETHEL.COM,CHRISTIAN,1920 BLADENSBURG RD NE,402273.07,138728.17,CHURCHES,1,,
-76.998646396445011,38.890789504341498,528,TOGETHER FOR THE GOSPEL,,CHRISTIAN,525 A ST NE,400117.63,135882,CHURCHES,1,,
-76.999762361379368,38.906182461612204,529,GROUND TRUTH DATA,GROUNDTRUTHDATA.COM,CHRISTIAN,1214 5TH ST NE,400020.81,137590.74,CHURCHES,1,,
-76.98019914856016,38.897096666156067,530,PILGRIM AME,,CHRISTIAN,1673 ROSEDALE ST NE,401717.87,136582.33,CHURCHES,1,,
-76.973350990931635,38.90387679811073,531,NORTHEAST COMMUNITY CHR OF GOD,,CHRISTIAN,2109 MARYLAND AVE NE,402311.71,137335.13,CHURCHES,1,,
-77.026507455733764,38.895054400428073,532,LEVI ZION,,CHRISTIAN,1001 PENNSYLVANIA AVE NW,397700.68,136355.77,CHURCHES,1,,
-77.004190667473395,38.877745204876518,533,WATERFRONT CHURCH DC,WATERFRONTCHURCHDC.COM,CHRISTIAN,140 L ST SE,399636.57,134433.99,CHURCHES,1,,
-77.001802896915024,38.887302895670686,534,TRUTH ABOUT GW BUSH IS NOW OUT,,CHRISTIAN,300 PENNSYLVANIA AVE SE,399843.78,135494.96,CHURCHES,1,,
-77.027407095658347,38.895163464315026,535,NO GREATER SACRIFICE,NOGREATERSACRIFICE.ORG,CHRISTIAN,1101 PENNSYLVANIA AVE NW # 6,397622.64,136367.9,CHURCHES,1,,
-77.021580760856068,38.895432324699023,536,ST PETER LUTHERAN CHURCH,,CHRISTIAN,419 7TH ST NW,398128.08,136397.61,CHURCHES,1,,
-76.986184786460612,38.891834837935853,537,MITCHAM CHAPEL AME,,CHRISTIAN,130 14TH ST NE,401198.72,135998.13,CHURCHES,1,,
-77.020890362234937,38.906781630957042,538,RAYCROW APOSTLE D,,CHRISTIAN,614 EMMANUEL CT NW,398188.26,137657.46,CHURCHES,1,,
-77.020561632683368,38.907479295820323,539,SOCIETY-THE HOLY CHILD JESUS,,CHRISTIAN,611 N ST NW,398216.79,137734.9,CHURCHES,1,,
-77.026217963499221,38.916274808642285,540,ST JAMES HEALING CHURCH,,CHRISTIAN,1920 10TH ST NW,397726.47,138711.4,CHURCHES,1,,
-77.009976181637327,38.897057019799121,541,IOWA GENERAL ASSEMBLY,LEGIS.STATE.IA.US,CHRISTIAN,20 F ST NW # 200,399134.79,136577.79,CHURCHES,1,,
-77.003233493540236,38.896844983892251,542,HERITAGE REVIVAL PROJECTS INC,HERITAGEREVIVAL.ORG,CHRISTIAN,521 2ND ST NE,399719.7,136554.21,CHURCHES,1,,
-77.017565684835361,38.905476327680049,543,MT JOY PENTECOSTAL SSS CHURCH,,CHRISTIAN,432 M ST NW,398476.6,137512.5,CHURCHES,1,,
-77.024996305692113,38.902882099576644,544,CHINESE COMMUNITY CHURCH,CCCDC.COM,CHRISTIAN,500 I ST NW,397832.01,137224.67,CHURCHES,1,,
-77.051963293554564,38.89853884428846,545,WESTERN PRESBYTERIAN CHURCH,WESTERNPRESBYTERIAN.NET,CHRISTIAN,2401 VIRGINIA AVE NW,395492.61,136743.52,CHURCHES,1,,
-77.0593789521362,38.908313521039318,546,WOOD ISLAND LIFE SAVING STA,,CHRISTIAN,1344 30TH ST NW,394850.04,137828.98,CHURCHES,1,,
-77.07712488189425,38.923991353430615,547,SEVENTH SON,TIMOHYNES.COM,CHRISTIAN,2605 39TH S,393312.34,139570.5,CHURCHES,1,,
-77.070427723353447,38.927240558776141,548,ST SOPHIA CATHEDRAL,,CHRISTIAN,2815 36TH ST NW,393893.36,139930.72,CHURCHES,1,,
-77.065862299738271,38.904503386685569,549,LAKE GROVE PRESBYTERIAN CHURCH,,CHRISTIAN,1027 33RD ST NW,394287.41,137406.41,CHURCHES,1,,
-77.044690737572736,38.898128188870054,550,THREE STRANDS COMMUNITY CHURCH,,CHRISTIAN,1920 G ST NW,396123.45,136697.6,CHURCHES,1,,
-77.037898171811392,38.902930244383604,551,ST MARK'S SQUARE LLC,,CHRISTIAN,1629 K ST NW,396712.9,137230.4,CHURCHES,1,,
-77.060405732750084,38.903501183095699,552,LAS PLACITAS PRESBYTERIAN CHR,,CHRISTIAN,1050 THOMAS JEFFERSON ST NW,394760.63,137294.83,CHURCHES,1,,
-77.056682380624267,38.908695373042185,553,EPISCOPAL HERITAGE CHURCH,,CHRISTIAN,2727 O ST NW,395083.95,137871.22,CHURCHES,1,,
-77.046028838823844,38.902149362060975,554,MARCH-THE LIVING LONGITUDINAL,,CHRISTIAN,2020 K ST NW,396007.6,137144.04,CHURCHES,1,,
-77.027740819724983,38.898141641448866,555,READING FOR NASAA ASSEMBLY,NASPAA.ORG,CHRISTIAN,1120 G ST NW,397593.79,136698.51,CHURCHES,1,,
-77.039826760488211,38.899344095641133,556,HOMBRES DE PALABRA,,CHRISTIAN,1701 PENNSYLVANIA AVE NW,396545.44,136832.38,CHURCHES,1,,
-76.977673093202981,38.922096259522242,557,RESTORATION TEMPLE MINISTRIES,,CHRISTIAN,1839 CHANNING ST NE,401936.32,139357.54,CHURCHES,1,,
-76.929089455982478,38.896646673843243,558,NEW BAPTIST COVENANT,PNBCAS.COM,CHRISTIAN,601 50TH ST NE,406151.54,136534.58,CHURCHES,1,,
-77.023215376663842,38.976966221191638,559,LIGHTHOUSE MINISTRIES,,CHRISTIAN,7114 7TH ST NW,397988.58,145448.62,CHURCHES,1,,
-77.014250510066162,38.942465124432914,560,ST MARY ORTHODOX CHURCH,,CHRISTIAN,211 UPSHUR ST NW,398764.79,141618.52,CHURCHES,1,,
-77.088332304041003,38.951338658985144,561,ZEN BUDDHIST CTR OF WASHINGTON,,CHRISTIAN,4705 45TH ST NW,392343.43,142607.17,CHURCHES,1,,
-76.996426814318738,38.941440164767336,562,TRANSFORMATION CHURCH DC INC,,CHRISTIAN,4323 VARNUM PL NE,400309.97,141504.65,CHURCHES,1,,
-77.029920618874556,38.939890115971053,563,NEW CHRIST HOLY TEMPLE FWB,HTCONLINE.ORG,CHRISTIAN,4000 13TH ST NW,397406.22,141333,CHURCHES,1,,
-76.998672103469644,38.927872356673234,564,ST THOMAS AQUINAS CHURCH,,CHRISTIAN,3015 4TH ST NE,400115.34,139998.5,CHURCHES,1,,
-76.975791697963118,38.929533062248922,565,OASIS COMMUNITY PARTNERS,,CHRISTIAN,2006 RHODE ISLAND AVE NE,402099.25,140183.13,CHURCHES,1,,
-77.072139134071463,38.931431083662957,566,PROTESTANT EPISCOPAL CATHEDRAL,CATHEDRAL.ORG,CHRISTIAN,3101 WISCONSIN AVENUE NW,393745.33,140396.02,CHURCHES,1,,
-76.937906838709637,38.894402393413216,567,MORNING STAR PENTECOSTAL CHR,,CHRISTIAN,4417 DIX ST NE,405386.82,136284.89,CHURCHES,1,,
-77.020631089306605,38.956673648540374,568,TRIUMPHANT CHURCH,,CHRISTIAN,519 KENNEDY ST NW,398212,143195.9,CHURCHES,1,,
-76.989430708172009,38.92016481759498,569,MANIFEST SONS-GOD MINISTRIES,NETSCAPE.NET,CHRISTIAN,1215 BRENTWOOD RD NE # 2246,400916.76,139142.95,CHURCHES,1,,
-76.912169708815043,38.894796479602327,570,LIFE GOSPEL ASSEMBLY INTL CHR,,CHRISTIAN,410 EASTERN AVE NE,407619.49,136330.47,CHURCHES,1,,
-77.035796822263734,38.983522384098812,571,HOPE TABERNACLE CHURCH OF GOD,HOPETABERNACLECOG.ORG,CHRISTIAN,7701 16TH ST NW,396898.68,146176.77,CHURCHES,1,,
-77.072652192204572,38.959331862958877,572,RIVER CITY CHURCH,RIVERCITYCH.COM,CHRISTIAN,5312 CONNECTICUT AVE NW,393703.31,143493.29,CHURCHES,1,,
-76.929842661764525,38.899354232728072,573,LITTLE MT ZION HOLINESS CHURCH,,CHRISTIAN,736 50TH ST NE,406085.97,136835.09,CHURCHES,1,,
-77.081741351886706,38.956239629815279,574,ST LOUIS DE FRANCE,,CHRISTIAN,4125 GARRISON ST NW,392915.23,143150.69,CHURCHES,1,,
-77.033008819860186,38.946432365029615,575,WASHINGTON D C CHURCH OF GOD,,CHRISTIAN,4604 14TH ST NW,397138.75,142059.34,CHURCHES,1,,
-77.037564076608433,38.942125659380643,576,UNIFICATION CHURCH,,CHRISTIAN,1611 UPSHUR ST NW,396743.67,141581.41,CHURCHES,1,,
-77.006640145393604,38.95493010911531,577,UNITED CHRISTIAN CHR WORLDWIDE,,CHRISTIAN,33 RIGGS RD NE,399424.65,143002.17,CHURCHES,1,,
-77.078182511974603,38.966295281524758,578,MISSION INTERNATIONALE POUR LA,,CHRISTIAN,5671 WESTERN AVE NW,393224.65,144266.69,CHURCHES,1,,
-77.078344279022517,38.9444549829647,579,MARCHAR THE WA CONGRGTN FOR,,CHRISTIAN,4268 WISCONSIN AVE NW,393208.55,141842.23,CHURCHES,1,,
-77.065691224230477,38.924672522881373,580,SECRETARIAT REGISTRIES CHR,,CHRISTIAN,3339 MASSACHUSETTS AVE NW,394303.86,139645.34,CHURCHES,1,,
-77.004230546556514,38.955528280026101,581,DOMINION CHURCH OF WASHINGTON DC,,CHRISTIAN,5335 1ST PL NE,399633.51,143068.56,CHURCHES,1,,
-77.029027532286435,38.91902808155686,582,MANUEL DE JESUS FERNANDEZ TRRS,,CHRISTIAN,1220 W ST NW # 102,397482.91,139017.11,CHURCHES,1,,
-77.034384745262784,38.922406732326628,583,UNCION PODER Y FUEGO,,CHRISTIAN,1432 CLIFTON ST NW # 2,397018.47,139392.33,CHURCHES,1,,
-77.028968617653575,38.960496247234786,584,BALM IN GILEAD MINISTRIES,,CHRISTIAN,5825 COLORADO AVE NW,397489.48,143620.44,CHURCHES,1,,
-77.023837426590106,38.934908935024616,585,INTERNATIONAL HOUSE-PRAYER,,CHRISTIAN,3613 GEORGIA AVE NW,397933.46,140779.89,CHURCHES,1,,
-77.035981133858996,38.952193993320506,586,IGLESIA MISIONERA CUERPO DE,CUEPRODECRISTO.ORG,CHRISTIAN,5101 16TH ST NW,396881.34,142699.03,CHURCHES,1,,
-77.035981133858996,38.952193993320506,587,BEREAN ETHIOPIAN ADVENTIST GRP,BEREANETHIOPIANDC.ADVENTISTCHURCH.ORG,CHRISTIAN,5101 16TH ST NW,396881.34,142699.03,CHURCHES,1,,
-77.018452411742203,38.941223284230219,588,KEDUS YOHANNES METEMIK,,CHRISTIAN,4100 ILLINOIS AVE NW,398400.49,141480.73,CHURCHES,1,,
-77.045142432295179,38.909472507178585,589,UNITARIAM UNIVERSALIST SVC CMT,UUSC.ORG,CHRISTIAN,2000 P ST NW,396084.89,137956.93,CHURCHES,1,,
-77.039531312659264,38.906447555305313,590,MEPT ST MATTHEWS LLC,,CHRISTIAN,1717 RHODE ISLAND AVE NW,396571.41,137620.91,CHURCHES,1,,
-77.041895402999558,38.908248131060667,591,INTERNATIONAL CHRISTIAN,,CHRISTIAN,1314 18TH ST NW,396366.45,137820.88,CHURCHES,1,,
-77.039509859774725,38.908721630138416,592,SERBIAN,,CHRISTIAN,1717 MASSACHUSETTS AVE NW,396573.38,137873.35,CHURCHES,1,,
-77.041965362882451,38.907618872819668,593,SPLIT THIS ROCK INC,SPLITTHISROCK.ORG,CHRISTIAN,1301 CONNECTICUT AVE NW # 600,396360.35,137751.03,CHURCHES,1,,
-77.019993154352619,38.920359425746391,594,SUNDAY MORNING GOSPEL,,CHRISTIAN,529 BRYANT ST NW,398266.41,139164.69,CHURCHES,1,,
-76.970256281610887,38.855555033009232,595,CHURCH OF THE FIRST BORN,,CHRISTIAN,2451 AINGER PL SE,402581.89,131971.13,CHURCHES,1,,
-76.942311960330841,38.89415863321215,596,ST PHILLIP AME,,CHRISTIAN,241 42ND ST NE,405004.69,136257.58,CHURCHES,1,,
-76.988557219662368,38.940890243739432,597,REDEEMER CITY CHURCH OF FL INC,,CHRISTIAN,4200 13TH ST NE,400992.22,141443.66,CHURCHES,1,,
-76.960033884679177,38.88379667585334,598,STRAIT GATE BAPTIST CHURCH,,CHRISTIAN,3236 ELY PL SE,403467.8,135106.5,CHURCHES,1,,
-76.98883981520207,38.949043489667908,599,KABOD CHURCH,KABODCHURCH.ORG,CHRISTIAN,4915 SARGENT RD NE,400967.61,142348.74,CHURCHES,1,,
-76.985645021714689,38.926592031805171,600,MARY'S MISSIONARY BAPT CHR INC,,CHRISTIAN,2811 14TH ST NE,401244.94,139856.47,CHURCHES,1,,
-76.984488341743472,38.842681668993919,601,STEP OF FAITH MINISTRIES,STEPOFFAITHMINISTRIES.ORG,CHRISTIAN,3330 14TH PL SE,401346.82,130541.79,CHURCHES,1,,
-76.986521607935401,38.857019210583722,602,ANACOSTIA RIVER BAPTIST CHURCH,ANACOSTIARIVERCHURCH.ORG,CHRISTIAN,2420 HILLSDALE PL SE,401170.07,132133.33,CHURCHES,1,,
-76.999957366173561,38.825099264650952,603,TURNING HEARTS CHURCH,TURNINGHEARTSCHURCHDC.ORG,CHRISTIAN,4275 4TH ST SE,400003.9,128589.91,CHURCHES,1,,
-76.985059122624435,38.865719004975354,604,AGAPE CHURCH OF CHRIST INC,CHURCH-OF-CHRIST.ORG,CHRISTIAN,2002 14TH ST SE,401296.85,133099.09,CHURCHES,1,,
-76.994695868822603,38.859491419510334,605,MT ZION AME,,CHRISTIAN,2562 MARTIN LUTHER KING JR AVE,400460.56,132407.69,CHURCHES,1,,
-76.982320300495871,38.852699648134866,606,I AM THE WAY THE TRUTH & LIFE,,CHRISTIAN,3082 STANTON RD SE # 101,401534.82,131653.89,CHURCHES,1,,
-76.969382594187692,38.874471308685727,607,SOUTHERN FRIENDSHIP BAPTIST,,CHRISTIAN,2600 MINNESOTA AVE SE,402657.02,134071,CHURCHES,1,,
-76.982584425334949,38.861370479212546,608,VICTORY WORD & WORSHIP CTR,,CHRISTIAN,2322 16TH ST SE,401511.71,132616.41,CHURCHES,1,,
-76.964508522048888,38.85934102049842,609,NEW REDEEMED CHURCH OF CHRIST,,CHRISTIAN,2613 30TH ST SE,403080.62,132391.58,CHURCHES,1,,
-77.040352380124588,38.903515235827996,610,YORKTOWN VICTORY CTR,,CHRISTIAN,1050 CONNECTICUT AVE NW,396500.05,137295.43,CHURCHES,1,,
-76.93399411572139,38.911735661346789,611,Bethel Commandment Church of Living God,<Null>,CHRISTIAN,1627 KENILWORTH AVENUE NE,405724.86,138209.26,CHURCHES,1,pow_3,150101
-76.975071549475061,38.943144812757183,612,Northeastern Presbyterian,http://www.nepc-dc.org/,CHRISTIAN,2112 VARNUM STREET NE,402161.28,141694.17,CHURCHES,1,pow_136,51647
-77.027729343849657,38.983679606495329,613,Northminster Presbyterian Church,NORTHMINSTERDC.ORG,CHRISTIAN,7720 ALASKA AVENUE NW,397597.67,146193.98,CHURCHES,1,pow_137,253620
-76.974497447853622,38.930556941892661,614,Evangel Missionary Baptist Church,<Null>,CHRISTIAN,3200 22ND STREET NE,402211.44,140296.82,CHURCHES,1,pow_146,39025
-77.023945843290903,38.92769352780239,615,Old Pentecost,<Null>,CHRISTIAN,727 HOBART PLACE NW,397923.85,139978.92,CHURCHES,1,pow_151,285391
-77.00031854303667,38.83219550504807,616,Paramount Baptist,http://www.paramountbaptistchurch.org,CHRISTIAN,3924 4TH STREET SE,399972.54,129377.64,CHURCHES,1,pow_154,29051
-77.023914104530377,38.935530762452252,617,Fisherman Of Men,FISHERMANOFMENCHURCH.ORG,CHRISTIAN,3641 GEORGIA AVENUE NW,397926.83,140848.92,CHURCHES,1,pow_96,228340
-77.061429307541772,38.907041112569487,618,Georgetown Baptist Church,GEORGETOWNDC.COM,CHRISTIAN,3101 N STREET NW,394672.11,137687.85,CHURCHES,1,pow_105,223424
-76.928737040816827,38.884890436283769,619,The Greater New Highway Christian Church of Christ,,CHRISTIAN,5057 C STREET SE,406183.13,135229.57,CHURCHES,1,pow_221,14124
-77.029979426207447,38.917626775526237,620,Walker Memorial Baptist,http://www.wmbcdc.org/,CHRISTIAN,2020 13TH STREET NW,397400.31,138861.58,CHURCHES,1,pow_583,240352
-77.027849815141437,38.910983383481366,621,First Genesis Baptist,,CHRISTIAN,1527 12TH STREET NW,397584.77,138124.05,CHURCHES,1,pow_389,225725
-77.000312409092757,38.903880106786517,622,Greater Pleasant Grove Baptist,,CHRISTIAN,1101 4TH STREET NE,399973.1,137335.16,CHURCHES,1,pow_405,149755
-76.999259241828,38.882517743611864,623,Progress For Christ Baptist,http://www.progressforchrist.org/,CHRISTIAN,501 E STREET SE,400064.47,134963.77,CHURCHES,1,pow_611,15241
-77.000326258767274,38.882111016750216,624,Mount Joy Baptist,,CHRISTIAN,514 4TH STREET SE,399971.89,134918.62,CHURCHES,1,pow_615,277597
-76.950692098216379,38.891409962532954,625,Upper Room Baptist,,CHRISTIAN,60 BURNS STREET NE,404277.87,135952.03,CHURCHES,1,pow_616,288747
-77.02931326434873,38.967246224795545,626,St John United Baptist Church,STJOHNUNITEDBAPTIST.ORG,CHRISTIAN,6343 13TH STREET NW,397459.85,144369.76,CHURCHES,1,pow_618,253260
-76.926990120414061,38.898707395874432,627,Holy Christian House of Praise for all people,http://www.hchouseofpraise.org/,CHRISTIAN,5110 NANNIE HELEN BURROUGHS AVENUE NE,406333.47,136763.48,CHURCHES,1,pow_224,288501
-76.983908589995451,38.899431933444781,628,Bethlehem Fire Baptized Holiness Church,FBHCHURCH.ORG,CHRISTIAN,712 15TH STREET NE,401396.04,136841.5,CHURCHES,1,pow_233,288893
-76.925104506622674,38.889465233245545,629,Christ Centered Missionary Baptist Church,,CHRISTIAN,5325 EAST CAPITOL STREET SE,406497.88,135737.66,CHURCHES,1,pow_235,288610
-77.026438171646774,38.944495362910551,630,Christ Apostolic Church,<Null>,CHRISTIAN,4408 GEORGIA AVENUE NW,397708.28,141844.13,CHURCHES,1,pow_236,252657
-77.026233752820303,38.930671905337952,631,Greater Harvest Baptist,,CHRISTIAN,3231 SHERMAN AVENUE NW,397725.56,140309.6,CHURCHES,1,pow_707,242951
-76.93457536663432,38.907064259326248,632,Beauty for Ashes Multicultural Worship Center,,CHRISTIAN,1229 47TH PLACE NE,405674.82,137690.66,CHURCHES,1,pow_430,70669
-77.029388793078709,38.914237629725655,633,Beginning Church of God,,CHRISTIAN,1235 S STREET NW,397451.41,138485.34,CHURCHES,1,pow_433,278992
-76.988094471081794,38.899962757153162,634,Saint John's Church Of God,,CHRISTIAN,1301 H STREET NE,401032.93,136900.37,CHURCHES,1,pow_440,68809
-77.031123378057899,38.907752254656209,635,Mount Olivet Lutheran Church,http://www.lutheransonline.com/servlet/lo_ProcServ/dbpage=page&gid=20071437302121030801111555,CHRISTIAN,1306 VERMONT AVENUE NW,397300.73,137765.46,CHURCHES,1,pow_444,297685
-76.938096739173204,38.904844628205495,636,Second Refreshing Church of God in Christ,,CHRISTIAN,4407 LEE STREET NE,405369.56,137444.05,CHURCHES,1,pow_474,22292
-76.933545386774071,38.89958403898207,637,Sacred Heart Spiritual Church,,CHRISTIAN,721 48TH STREET NE,405764.76,136860.36,CHURCHES,1,pow_543,77706
-76.985536914581047,38.912041585789872,638,Trinity Baptist Church,http://www.trinitybaptistchurchdc.org/,CHRISTIAN,1814 CENTRAL PLACE NE,401254.57,138241.25,CHURCHES,1,pow_567,286491
-76.938266337972053,38.900839511999784,639,True Vision Chruch of God In Christ Inc.,,CHRISTIAN,4410 HUNT PLACE NE,405355.15,136999.44,CHURCHES,1,pow_480,22193
-76.938233155967367,38.902547749695842,640,Deanwood Seventh-Day Adventist Fellowship,,CHRISTIAN,4417 SHERIFF ROAD NE,405357.9,137189.07,CHURCHES,1,pow_481,21764
-77.088062761500296,38.953912977137755,641,Washington International Church,http://internationalchurch.org/,CHRISTIAN,4420 RIVER ROAD NW,392367.07,142892.92,CHURCHES,1,pow_482,267907
-77.026728416914167,38.949149606025692,642,Faith Assembly Of Christ,FAITHASSEMBLYOFCHRIST.COM,CHRISTIAN,4821 GEORGIA AVENUE NW,397683.27,142360.8,CHURCHES,1,pow_208,284969
-77.036935288342292,38.950779486767807,643,Nipponzan Myohoji,,BUDDHISM,4900 16TH STREET NW,396798.57,142542.04,TEMPLES,1,pow_210,258782
-77.03777999612511,38.950149087912678,644,Zion Baptist Church,http://www.ziondc.org/,CHRISTIAN,4850 BLAGDEN AVENUE NW,396725.32,142472.09,CHURCHES,1,pow_343,258775
-77.008742270049112,38.902826342945204,645,Saint Phillip Baptist,<Null>,CHRISTIAN,1001 NORTH CAPITOL STREET NE,399241.89,137218.22,CHURCHES,1,pow_347,285738
-76.984938101688712,38.92430419029025,646,Historic Berean Baptist Church,,CHRISTIAN,1400 MONTANA AVENUE NE,401306.28,139602.51,CHURCHES,1,pow_356,286125
-76.98488346602727,38.859432096924266,647,New United Baptist,NEWUNITEDBAPTISTCHURCH.ORG,CHRISTIAN,2233 HUNTER PLACE SE,401312.21,132401.2,CHURCHES,1,pow_360,49655
-76.984163522382133,38.867024836612316,648,Ambassador Baptist,<Null>,CHRISTIAN,1412 MINNESOTA AVENUE SE,401374.55,133244.06,CHURCHES,1,pow_364,64651
-77.007398864104019,38.963097042436779,649,Riggs Park Baptist,,CHRISTIAN,5998 CHILLUM PLACE NE,399358.96,143908.78,CHURCHES,1,pow_251,285291
-77.011225945258758,38.879023121678827,650,Bethel Pentecostal Tabernacle,,CHRISTIAN,60 I STREET SW,399026.13,134575.9,CHURCHES,1,pow_252,276677
-76.981843025147811,38.897912910853329,651,United Pentecostal Assembly Inc.,,CHRISTIAN,619 16TH STREET NE,401575.25,136672.91,CHURCHES,1,pow_256,3999
-76.91150998114658,38.894159540139022,652,Lighthouse Full Gospel Mission Church,,CHRISTIAN,6217 DIX STREET NE,407676.79,136259.82,CHURCHES,1,pow_259,3461
-76.983356408530653,38.898874778996884,653,The New Solid Rock Perfecting Church,,CHRISTIAN,701 15TH STREET NE,401443.95,136779.66,CHURCHES,1,pow_267,327
-77.022617208713314,38.955101518898729,654,Christ Memorial Baptist,,CHRISTIAN,702 JEFFERSON STREET NW,398039.81,143021.42,CHURCHES,1,pow_268,250210
-77.026103233866806,38.977708160442091,655,New Second Baptist,,CHRISTIAN,7205 GEORGIA AVENUE NW,397738.37,145531.05,CHURCHES,1,pow_270,254723
-77.023279679957724,38.945950151971019,656,New Southern Rock Baptist,NSRBC.ORG,CHRISTIAN,750 BUCHANAN STREET NW,397982.13,142005.55,CHURCHES,1,pow_275,285402
-76.993463036904828,38.901184173846303,657,Trinity Holy Tabernacle,,CHRISTIAN,829 9TH STREET NE,400567.23,137035.91,CHURCHES,1,pow_283,81023
-77.031760560989909,38.950619128496399,658,Macedonia Church of God in Christ,MACEDONIACOGICDC.ORG,CHRISTIAN,1320 FARRAGUT STREET NW,397247.12,142524.07,CHURCHES,1,pow_297,255088
-76.986556152117828,38.866300139500126,659,Anacostia Full Gospel,,CHRISTIAN,1320 U STREET SE,401166.92,133163.58,CHURCHES,1,pow_298,67782
-77.031851695962857,38.945966687556542,660,Ethiopian Orthodox Tewhahedo,<Null>,CHRISTIAN,1350 BUCHANAN STREET NW,397239.04,142007.61,CHURCHES,1,pow_307,259641
-76.985295371868276,38.89631360081475,661,Church of God of Prophecy - Capitol Hill,,CHRISTIAN,1400 E STREET NE,401275.8,136495.32,CHURCHES,1,pow_313,149978
-76.988953737276844,38.864512310683963,662,Union Temple Baptist,http://www.uniontemple.com/,CHRISTIAN,1225 W STREET SE,400958.87,132965.09,CHURCHES,1,pow_331,70732
-76.971679458065239,38.868950816822149,663,True Unity Baptist,,CHRISTIAN,2417 NAYLOR ROAD SE,402457.9,133458.12,CHURCHES,1,pow_664,152101
-77.015448481243425,38.962944196548726,664,Peabody St Mennonite Church,,CHRISTIAN,245 PEABODY STREET NW,398661.32,143891.9,CHURCHES,1,pow_668,295748
-76.987201016197616,38.856376896051181,665,St John Christian Methodist Episcopal Church Outreach Center,,CHRISTIAN,2801 STANTON ROAD SE,401111.11,132062.02,CHURCHES,1,pow_683,44422
-77.001798844553221,38.89114776134155,666,Faith Tabernacle United Holy Church,http://faithtabernacledc.org/,CHRISTIAN,300 A STREET NE,399844.14,135921.77,CHURCHES,1,pow_689,42712
-76.963454603927119,38.921519118197523,667,Victory Christian Baptist Church,,CHRISTIAN,3100 ADAMS STREET NE,403169.33,139293.87,CHURCHES,1,pow_692,40688
-77.00016458223061,38.842821339260134,668,Jerusalem Church Of God in Christ,,CHRISTIAN,3128 MARTIN LUTHER KING JR AVENUE SE,399985.91,130557.18,CHURCHES,1,pow_697,39939
-77.03702993277075,38.929993630127079,669,Meridan Hill Baptist,http://meridianhill.tripod.com/,CHRISTIAN,3146 16TH STREET NW,396789.43,140234.63,CHURCHES,1,pow_700,236414
-77.024776427233206,38.942298785674794,670,Praise Temple Church Of Christ,,CHRISTIAN,4211 9TH STREET NW,397852.27,141600.25,CHURCHES,1,pow_959,284852
-76.983414849877406,38.882038493493184,671,Providence Baptist,,CHRISTIAN,526 15TH STREET SE,401439.22,134910.7,CHURCHES,1,pow_960,308993
-76.979798720968915,38.932355316022594,672,Progressive Pentecostal (Purity),,CHRISTIAN,3406 18TH STREET NE,401751.74,140496.34,CHURCHES,1,pow_721,35162
-76.979863840821849,38.933736480687969,673,Resurrection Church of God in Christ,,CHRISTIAN,3516 18TH STREET NE,401746.06,140649.66,CHURCHES,1,pow_725,33828
-76.995855135911299,38.882043290737577,674,The Church of Jesus Christ of Latter Day Saints,,CHRISTIAN,522 7TH STREET SE,400359.83,134911.11,CHURCHES,1,pow_728,303286
-76.982958061302512,38.932402302193601,675,St Paul Temple Church Of God,,CHRISTIAN,3420 16TH STREET NE,401477.81,140501.5,CHURCHES,1,pow_730,289759
-76.990617026920674,38.937981198459362,676,Little Rock Faith Baptist,,CHRISTIAN,3926 12TH STREET NE,400813.68,141120.71,CHURCHES,1,pow_744,29095
-77.03246551424094,38.939904210402865,677,Iglesia Primitiva Pentecostal,,CHRISTIAN,4001 14TH STREET NW,397185.59,141334.64,CHURCHES,1,pow_747,255304
-76.982458123184841,38.883963085804204,678,Vineyard Baptist Church,,CHRISTIAN,401 16TH STREET SE,401522.19,135124.36,CHURCHES,1,pow_748,28129
-77.000345145735253,38.879124644979278,679,St Paul AUMP,,CHRISTIAN,401 I STREET SE,399970.25,134587.11,CHURCHES,1,pow_749,288070
-76.936850245902278,38.893361810439906,680,Temple United Church,,CHRISTIAN,4510 BROOKS STREET NE,405478.56,136169.44,CHURCHES,1,pow_485,20398
-76.922589067286779,38.898931213007167,681,New Mt Carmel Freewill Baptist,,CHRISTIAN,5368 GAY STREET NE,406715.22,136788.64,CHURCHES,1,pow_487,9476
-77.000854436586323,38.918274984533973,682,Greater Victory Baptist,,CHRISTIAN,2100 4TH STREET NE,399926.1,138933.11,CHURCHES,1,pow_490,51876
-76.911258405269209,38.894015305395854,683,Apostolic Evangelical Church of Jesus Christ,,CHRISTIAN,354 EASTERN AVENUE NE,407698.63,136243.83,CHURCHES,1,pow_754,33319
-76.98688215305161,38.932013919808462,684,Bunton Memorial CME,,CHRISTIAN,1348 LAWRENCE STREET NE,401137.58,140458.33,CHURCHES,1,pow_764,289604
-77.025083828642181,38.92555948909974,685,Cherubim and Seraphim Church Ayo,,CHRISTIAN,774 GIRARD STREET NW,397825.11,139742.05,CHURCHES,1,pow_770,301933
-77.07581977858095,38.93015650988432,686,ANNUNCIATION CATHOLIC CHURCH,ANNUNCIATIONDC.ORG,CHRISTIAN,3810 MASSACHUSETTS AVENUE NW,393426.08,140254.79,CHURCHES,1,pow_784,263608
-77.003325460894743,38.891396809377682,687,Cosmic Church,,CHRISTIAN,113 2ND STREET NE,399711.7,135949.42,CHURCHES,1,pow_787,285880
-76.974697767929868,38.929286363142758,688,Daughter Of Zion Baptist,,CHRISTIAN,2964 MILLS AVENUE NE,402194.11,140155.77,CHURCHES,1,pow_791,42596
-76.999714601513773,38.884458602488309,689,Ebenezer United Methodist,,CHRISTIAN,420 D STREET SE,400024.96,135179.22,CHURCHES,1,pow_802,25691
-76.974484714342509,38.93036614310315,690,Evangelical Missionary Baptist Church,,CHRISTIAN,2026 JACKSON STREET NE,402212.55,140275.64,CHURCHES,1,pow_808,52405
-76.933508273841326,38.900194244365487,691,New Hope Fire Baptist Church,,CHRISTIAN,811 48TH STREET NE,405767.93,136928.1,CHURCHES,1,pow_883,80068
-76.979868653419146,38.933848184491737,692,New Light Missionary Baptist,,CHRISTIAN,3518 18TH STREET NE,401745.64,140662.06,CHURCHES,1,pow_887,156289
-77.001737792877236,38.902248410852295,693,Community Holiness Church,,CHRISTIAN,305 K STREET NE,399849.46,137154.03,CHURCHES,1,pow_893,41326
-77.026241064320132,38.943643583717787,694,First Hijra Foundation,FIRSTHIJRAHFOUNDATION.COM,CHRISTIAN,4324 GEORGIA AVENUE NW,397725.34,141749.57,CHURCHES,1,pow_899,252611
-76.998080220419595,38.894489324921466,695,God's Universal Kingdom Christian Church,,CHRISTIAN,610 MARYLAND AVENUE NE,400166.74,136292.71,CHURCHES,1,pow_911,4858
-77.023510341771569,38.936702824270192,696,Faith Deliverance Center,,CHRISTIAN,807 ROCK CREEK CHURCH ROAD NW,397961.87,140979.02,CHURCHES,1,pow_812,228318
-77.022787073196866,38.927796364207438,697,Iglesia de Dios El Jardin Del Eden,, ,4917 GEORGIA AVENUE NW,398024.33,139990.31,CHURCHES,1,pow_839,237964
-76.94020360214661,38.903126210540357,698,Joshua's Temple FBC,,CHRISTIAN,4318 SHERIFF ROAD NE,405186.94,137253.17,CHURCHES,1,pow_845,23537
-76.987714137993208,38.898059611231581,699,Kingdom Of Zion Baptist,,CHRISTIAN,1313 MARYLAND AVENUE NE,401065.95,136689.11,CHURCHES,1,pow_848,68235
-77.033726024746784,38.958199306634206,700,Ky Vien Pagoda,,BUDDHIST,1400 MADISON STREET NW,397077.06,143365.6,TEMPLES,1,pow_852,255969
-76.938454333194002,38.91009641504322,701,Maranatha Chapel Fellowship,http://maranathachapelfellowship.org/, ,4459 DOUGLAS STREET NE,405338.15,138027.02,CHURCHES,1,pow_857,288228
-76.975442617378704,38.898992023745073,702,Open Door Temple Church of God in Christ,,CHRISTIAN,1918 BENNING ROAD NE,402130.43,136792.83,CHURCHES,1,pow_578,54117
-76.985005269830737,38.913639147787343,703,Masjid of Ivy City,,ISLAMIC,2001 GALLAUDET STREET NE,401300.65,138418.6,MOSQUES,1,pow_580,286578
-77.006989826391674,38.917212966489615,704,Franklin P Nash United Methodist,,CHRISTIAN,2001 LINCOLN ROAD NE,399394.02,138815.24,CHURCHES,1,pow_581,286579
-77.018451137036038,38.973286756971277,705,New Testament Church,,CHRISTIAN,400 BUTTERNUT STREET NW,398401.32,145040.07,CHURCHES,1,pow_631,259597
-77.035993878497791,38.944762519104742,706,Iglesia Pentecostal Emmanuel,,CHRISTIAN,4411 16TH STREET NW,396879.91,141874.07,CHURCHES,1,pow_648,255453
-77.01873496599886,38.965172627763991,707,Albright Memorial United Methodist,,CHRISTIAN,411 RITTENHOUSE STREET NW,398376.54,144139.33,CHURCHES,1,pow_659,249042
-77.074717088391083,38.930254239586105,708,Sikh Cultural Society - Sikh Temple,,SIKHISM,3801 MASSACHUSETTS AVENUE NW,393521.7,140265.56,TEMPLES,1,pow_965,222174
-77.025838303966609,38.975289419657159,709,Zen Buddhist Center,,BUDDHISM,7004 9TH STREET NW,397761.25,145262.54,TEMPLES,1,pow_982,253852
-77.031698156348426,38.965940757969918,710,St. John United Baptist Church,,CHRISTIAN,1348 SHERIDAN STREET NW,397253.12,144224.91,CHURCHES,1,pow_985,257635
-76.98811876271543,38.901544537409336,711,Temple Rock Of Ages Assembly of Yahweh,,CHRISTIAN,1300 I STREET NE,401030.8,137075.96,CHURCHES,1,pow_989,68757
-77.020919718007661,38.937290747862932,712,True Temple Missionary Baptist Church,,CHRISTIAN,617 ROCK CREEK CHURCH ROAD NW,398186.49,141044.23,CHURCHES,1,pow_992,247811
-76.963367483295755,38.87919826495682,713,Tyson Temple First Born,,CHRISTIAN,3024 MASSACHUSETTS AVENUE SE,403178.77,134595.92,CHURCHES,1,pow_993,41766
-77.023213643376323,38.957123127064136,714,Universal Meditation Temple,,CHRISTIAN,734 LONGFELLOW STREET NW,397988.17,143245.85,CHURCHES,1,pow_999,250300
-76.990022251848984,38.923604968503639,715,Isle Of Patmos Baptist,ISLEOFPATMOSBC.ORG,CHRISTIAN,1200 RHODE ISLAND AVENUE NE,400865.42,139524.83,CHURCHES,1,pow_917,302176
-76.983891173702986,38.898450019571534,716,New Mount Zion Church Of God,,CHRISTIAN,628 15TH STREET NE,401397.57,136732.5,CHURCHES,1,pow_926,3043
-76.935241393837828,38.873309246597209,717,New Strait Gate Baptist,,CHRISTIAN,4407 BOWEN ROAD SE,405619.71,133943.55,CHURCHES,1,pow_929,22277
-76.997714887865001,38.899099709706789,718,Saint Job Baptist Church,,CHRISTIAN,620 G STREET NE,400198.42,136804.5,CHURCHES,1,pow_944,3889
-77.026124292325278,38.978170908338619,719,Shepherd Park Church Of God,,CHRISTIAN,7239 GEORGIA AVENUE NW,397736.56,145582.42,CHURCHES,1,pow_950,254714
-77.061455209986036,38.908294313557747,720,CHRIST CHURCH - GEORGETOWN,CHRISTCHURCHGEORGETOWN.ORG,CHRISTIAN,3112 O STREET NORTHWEST,394669.96875,137826.96875,CHURCHES,1,,
-77.105934979850417,38.932289404012735,721,SAINT DAVIDS EPISCOPAL CHURCH,STDAVIDSDC.ORG,CHRISTIAN,5150 MACOMB STREET NORTHWEST,390815.15625,140494.15625,CHURCHES,1,,
-77.094798966380651,38.916312469103239,722,SAINT BLAISE CHURCH,,CHRISTIAN,4835 MACARTHUR BOULEVARD NORTHWEST,391778.84375,138719.515625,CHURCHES,1,,
-77.059290396004513,38.93624941925934,723,SHAMBHALA MEDITATION CENTER OF WASHINGTON DISTRICT OF COLUMBIA,,BUDDHIST,3520 CONNECTICUT AVENUE NORTHWEST,394859.75,140930.09375,TEMPLES,1,,
-77.07972300227803,38.946561107249458,724,SAINT ANN'S CATHOLIC CHURCH,STANNDC.ORG,CHRISTIAN,4001 YUMA STREET NORTHWEST,393089.21875,142076.125,CHURCHES,1,,
-77.054992980296319,38.926128026208559,725,SAINT THOMAS APOSTLE CATHOLIC,STTHOMASAPOSTLEDC.ORG,CHRISTIAN,2665 WOODLEY ROAD NORTHWEST,395231.65625,139806.296875,CHURCHES,1,,
-77.082345299479826,38.948374494781191,726,SAINT COLUMBAS EPISCOPAL CHURCH,COLUMBA.ORG,CHRISTIAN,4201 ALBEMARLE STREET NORTHWEST,392862.09375,142277.640625,CHURCHES,1,,
-77.07225401324736,38.929469749879274,727,SAINT ALBANS EPISCOPAL CHURCH,STALBANSDC.ORG,CHRISTIAN,3001 WISCONSIN AVENUE NORTHWEST,393735.1875,140178.296875,CHURCHES,1,,
-77.076109767663837,38.931432808274955,728,CHRIST CHURCH ON EMBASSY ROW,www.REPRESENTJESUS.COM,CHRISTIAN,3855 MASSACHUSETTS AVENUE NORTHWEST,393401.0625,140396.484375,CHURCHES,1,,
-77.036966421853194,38.943143282198285,729,GRACE EVANGELICAL LUTHERAN CHURCH,GRACEELCADC.ORG,CHRISTIAN,4300 16TH STREET NORTHWEST,396795.53125,141694.359375,CHURCHES,1,,
-77.033036937564361,38.95005266765034,730,SAINT PAUL AFRICAN METHODIST EPISCOPAL CHURCH,,CHRISTIAN,4901 14TH STREET NORTHWEST,397136.46875,142461.234375,CHURCHES,1,,
-77.004855590757757,38.877236970456273,731,SAINT MATTHEWS BAPTIST CHURCH,,CHRISTIAN,1105 NEW JERSEY AVENUE SOUTHEAST,399578.875,134377.578125,CHURCHES,1,,
-76.999579805618268,38.843671754085406,732,MASJID USH-SHURA,,ISLAMIC,3109 MARTIN LUTHER KING JUNIOR AVENUE SOUTHEAST,400036.6875,130651.578125,MOSQUES,1,,
-76.9672375353381,38.872519227359604,733,SAINT FRANCES XAVIER CHURCH,STFRANCISXAVIERDC.ORG,CHRISTIAN,2800 PENNSYLVANIA AVENUE SOUTHEAST,402843.25,133854.375,CHURCHES,1,,
-77.034064493480955,38.918347790873135,734,SAINT AUGUSTINE ROMAN CATHOLIC CHURCH,SAINTAUGUSTINE-DC.ORG,CHRISTIAN,1419 V STREET NORTHWEST,397046.0625,138941.75,CHURCHES,1,,
-77.014998853764354,38.904615351849216,735,BIBLE WAY TEMPLE,BIBLEWAYWASHINGTON.ORG,CHRISTIAN,1100 NEW JERSEY AVENUE NORTHWEST,398699.21875,137416.890625,CHURCHES,1,,
-77.003176238771175,38.893812894978439,736,SAINT JOSEPHS ON CAPITOL HILL ROMAN CATHOLIC CHURCH,ST-JOSEPHS.ORG,CHRISTIAN,313 2ND STREET NORTHEAST,399724.65625,136217.625,CHURCHES,1,,
-77.036917768814448,38.910182109223157,737,FOUNDRY UNITED METHODIST CHURCH,FOUNDRYUMC.ORG,CHRISTIAN,1500 16TH STREET NORTHWEST,396798.28125,138035.375,CHURCHES,1,,
-76.981727459322698,38.929281313625566,738,CHURCH OF OUR SAVIOUR,,CHRISTIAN,1616 IRVING STREET NORTHEAST,401584.59375,140155.0625,CHURCHES,1,,
-77.028411870552077,38.90482854669375,739,CHURCH OF THE ASCENSION AND SAINT AGNES,ASA-DC.ORG,CHRISTIAN,1217 MASSACHUSETTS AVENUE NORTHWEST,397535.8125,137440.828125,CHURCHES,1,,
-77.012088162723444,38.946841025697971,740,SAINT PAUL'S ROCK CREEK EPISCOPAL PARISH,STPAULSROCKCREEK.ORG,CHRISTIAN,ROCK CREEK CHURCH ROAD AND WEBSTER STREET NORTHWEST,398952.3125,142104.25,CHURCHES,1,,
-77.005474442548959,38.838302085253105,741,THE CHURCH OF THE HOLY COMMUNION,,CHRISTIAN,3640 MARTIN LUTHER KING JUNIOR AVENUE SOUTHEAST,399524.90625,130055.5234375,CHURCHES,1,,
-76.975450379463666,38.893855608015478,742,SAINT BENEDICT THE MOOR,STBENMOORDC.ORG,CHRISTIAN,320 21ST STREET NORTHEAST,402129.90625,136222.640625,CHURCHES,1,,
-76.986343484384918,38.893422167811799,743,SAINT MARY AFRICAN METHODIST EPISCOPAL ZION CHURCH,,CHRISTIAN,1339 C STREET NORTHEAST,401184.9375,136174.328125,CHURCHES,1,,
-77.004139152096442,38.841199186531341,744,CHURCH OF THE ASSUMPTION OF THE BLESSED VIRGIN MARY,ASSUMPTIONDC.ORG,CHRISTIAN,3411 MARTIN LUTHER KING JUNIOR AVENUE SOUTHEAST,399640.84375,130377.1171875,CHURCHES,1,,
-76.971765224198407,38.872652346845058,745,GRACE MEMORIAL BAPTIST CHURCH,,CHRISTIAN,2407 MINNESOTA AVENUE SOUTHEAST,402450.34375,133869.015625,CHURCHES,1,,
-76.943298994480671,38.877767162976461,746,JOHNSON MEMORIAL BAPTIST CHURCH,JMBCHURCHDC.ORG,CHRISTIAN,800 RIDGE ROAD SOUTHEAST,404920.1875,134437.953125,CHURCHES,1,,
-76.971847349354533,38.925802790380644,747,SECOND NEW SAINT PAUL BAPTIST CHURCH,SNSPBC.ORG,CHRISTIAN,2400 FRANKLIN STREET NORTHEAST,402441.375,139769.140625,CHURCHES,1,,
-76.98682293989539,38.8781515002539,748,MOUNT PARAN BAPTIST CHURCH,,CHRISTIAN,1339 K STREET SOUTHEAST,401143.5625,134479.171875,CHURCHES,1,,
-76.991961882967743,38.858173691191105,749,MACEDONIA BAPTIST CHURCH,MACEDONIADC.ORG,CHRISTIAN,2625 STANTON ROAD SOUTHEAST,400697.875,132261.4375,CHURCHES,1,,
-77.036764994231419,38.983536298728225,750,HANAFI MADHAB CENTER,,ISLAMIC,7700 16TH STREET NORTHWEST,396814.78125,146178.34375,MOSQUES,1,,
-77.024117847770881,38.942201976204373,751,CHRIST OUR REDEEMER AFRICAN METHODIST EPISCOPAL CHURCH,,CHRISTIAN,809 UPSHUR STREET NORTHWEST,397909.375,141589.484375,CHURCHES,1,,
-77.026500280653892,38.944284780152699,752,SAINT CHARLES BAPTIST CHURCH,,CHRISTIAN,4410 GEORGIA AVENUE NORTHEAST,397702.875,141820.75,CHURCHES,1,,
-76.936389162437024,38.886365797518529,753,MASJID AL-ISLAM,,ISLAMIC,4603 BENNING ROAD SOUTHEAST,405519.09375,135392.859375,MOSQUES,1,,
-77.001745546459972,38.888392442050595,754,SAINT MARKS EPISCOPAL CHURCH,,CHRISTIAN,301 A STREET SOUTHEAST,399848.75,135615.90625,CHURCHES,1,,
-76.94781922307007,38.883139064856024,755,OUR LADY QUEEN OF PEACE CHURCH,OLQPDC.ORG,CHRISTIAN,3800 ELY PLACE SOUTHEAST,404527.625,135034.03125,CHURCHES,1,,
-76.999275573211335,38.882524337854079,756,PLEASANT LANE BAPTIST CHURCH,,CHRISTIAN,501 E STREET SOUTHEAST,400063.0625,134964.5,CHURCHES,1,,
-77.020694232975529,38.975625747501873,757,TRINITY EPISCOPAL CHURCH,TRINITYCHURCHDC.ORG,CHRISTIAN,7005 PINEY BRANCH ROAD NORTHWEST,398207,145299.765625,CHURCHES,1,,
-77.020270877174326,38.876057806242322,758,SAINT AUGUSTINES EPISCOPAL CHURCH,STAUGUSTINESDC.ORG,CHRISTIAN,555 WATER STREET SOUTHWEST,398241.21875,134246.859375,CHURCHES,1,,
-77.019226328463901,38.910931611296881,759,THIRD BAPTIST CHURCH,,CHRISTIAN,1546 5TH STREET NORTHWEST,398332.6875,138118.109375,CHURCHES,1,,
-77.023796255332456,38.911425021579767,760,ANSAARU ALLAH COMMUNITY CHURCH,,ISLAMIC,818 RHODE ISLAND AVENUE NORTHWEST,397936.34375,138172.96875,MOSQUES,1,,
-77.031594155784902,38.91167274021624,761,JOHN WESLEY AFRICAN METHODIST EPISCOPAL ZION CHURCH,,CHRISTIAN,1615 14TH STREET NORTHWEST,397260.0625,138200.671875,CHURCHES,1,,
-77.036030985864784,38.910912908701363,762,BET MISHPACHAH,BETMISH.ORG,JEWISH,1529 16TH STREET NORTHWEST,396875.21875,138116.46875,SYNAGOGUES,1,,
-77.035689637441564,38.931088520804423,763,SHRINE OF THE SACRED HEART,SACREDHEARTDC.ORG,CHRISTIAN,3211 SACRED HEART WAY NORTHWEST,396905.6875,140356.125,CHURCHES,1,,
-77.016407886417994,38.965603202463456,764,MOUNT HEBRON BAPTIST CHURCH,,CHRISTIAN,6218 3RD STREET NORTHWEST,398578.21875,144187.09375,CHURCHES,1,,
-77.048288252333876,38.915607560146498,765,AMERICAN FAZAL MOSQUE,AHMADIYYA.US,ISLAMIC,2141 LEROY PLACE NORTHWEST,395812.40625,138638.109375,MOSQUES,1,,
-76.998744311486831,38.900875939725445,766,CALVARY EPISCOPAL CHURCH,CALVARYDC.NET,CHRISTIAN,820 6TH STREET NORTHEAST,400109.125,137001.671875,CHURCHES,1,,
-76.927718545084829,38.890544210127167,767,CAPITAL VIEW BAPTIST CHURCH,CAPVBC.ORG,CHRISTIAN,5201 AMES STREET NORTHEAST,406271,135857.25,CHURCHES,1,,
-76.999066805186089,38.903524922105916,768,ENON BAPTIST CHURCH,ENONBAPTISTDC.ORG,CHRISTIAN,505 L STREET NORTHEAST,400081.15625,137295.734375,CHURCHES,1,,
-77.01115901608442,38.910897455809035,769,EBENEZER BAPTIST CHURCH,,CHRISTIAN,46 Q STREET NORTHWEST,399032.375,138114.203125,CHURCHES,1,,
-77.037190801096969,38.908446159418382,770,FIRST BAPTIST CHURCH OF WASHINGTON DISTRICT OF COLUMBIA,FIRSTBAPTISTDC.ORG,CHRISTIAN,1328 16TH STREET NORTHWEST,396774.5,137842.6875,CHURCHES,1,,
-77.019626125684425,38.973090708616787,771,BRIGHT PEARL ZEN GROUP OF WASHINGTON,,BUDDHIST,6813 FIFTH STREET,398299.5,145018.328125,TEMPLES,1,,
-76.982924766855461,38.883887628640828,772,KAGYU DRUPGYU CHODZONG,,BUDDHIST,1519 D STREET SOUTHEAST,401481.71875,135115.96875,TEMPLES,1,,
-76.975479245774238,38.929066285472423,773,SAINT FRANCIS DE SALES CATHOLIC CHURCH,,CHRISTIAN,2015 RHODE ISLAND AVENUE NORTHEAST,402126.34375,140131.328125,CHURCHES,1,,
-77.00388056459127,38.885813083955405,774,SAINT PETERS ON CAPITOL HILL,,CHRISTIAN,313 2ND STREET SOUTHEAST,399663.53125,135329.578125,CHURCHES,1,,
